{
"type": "FeatureCollection",
"name": "BD_MineriaAurifera_Peru-curated2026-04-17",
"crs": { "type": "name", "properties": { "name": "urn:ogc:def:crs:OGC:1.3:CRS84" } },
"features": [
{ "type": "Feature", "properties": { "id": null, "Region": null, "X_GEO": null, "Y_GEO": null, "Area_ha": null }, "geometry": { "type": "Point", "coordinates": [ -69.155718618416245, -14.245282942958612 ] } },
{ "type": "Feature", "properties": { "id": 12, "Region": "Ucayali", "X_GEO": -73.915601, "Y_GEO": -8.384247, "Area_ha": 1.465 }, "geometry": { "type": "Point", "coordinates": [ -73.915601235006548, -8.38424661791502 ] } },
{ "type": "Feature", "properties": { "id": 14, "Region": "Ucayali", "X_GEO": -73.905171, "Y_GEO": -8.38144, "Area_ha": 2.915 }, "geometry": { "type": "Point", "coordinates": [ -73.905171034587156, -8.381439937109526 ] } },
{ "type": "Feature", "properties": { "id": 206, "Region": "Cusco", "X_GEO": -70.753352, "Y_GEO": -13.163807, "Area_ha": 3.993 }, "geometry": { "type": "Point", "coordinates": [ -70.750477487092155, -13.165332479301359 ] } },
{ "type": "Feature", "properties": { "id": 209, "Region": "Cusco", "X_GEO": -70.758666, "Y_GEO": -13.148119, "Area_ha": 0.11 }, "geometry": { "type": "Point", "coordinates": [ -70.758665802555086, -13.14811944150413 ] } },
{ "type": "Feature", "properties": { "id": 211, "Region": "Cusco", "X_GEO": -70.761843, "Y_GEO": -13.143434, "Area_ha": 1.765 }, "geometry": { "type": "Point", "coordinates": [ -70.761843274124459, -13.14343383572454 ] } },
{ "type": "Feature", "properties": { "id": 214, "Region": "Cusco", "X_GEO": -70.768276, "Y_GEO": -13.143655, "Area_ha": 0.117 }, "geometry": { "type": "Point", "coordinates": [ -70.770511124737894, -13.143117000098412 ] } },
{ "type": "Feature", "properties": { "id": 243, "Region": "Cusco", "X_GEO": -70.804956, "Y_GEO": -13.113132, "Area_ha": 0.084 }, "geometry": { "type": "Point", "coordinates": [ -70.807524738825478, -13.111649611653505 ] } },
{ "type": "Feature", "properties": { "id": 308, "Region": "Cusco", "X_GEO": -70.805657, "Y_GEO": -13.147284, "Area_ha": 5.911 }, "geometry": { "type": "Point", "coordinates": [ -70.805657140253118, -13.14728436087538 ] } },
{ "type": "Feature", "properties": { "id": 313, "Region": "Cusco", "X_GEO": -70.770836, "Y_GEO": -13.160697, "Area_ha": 0.171 }, "geometry": { "type": "Point", "coordinates": [ -70.773271768745147, -13.162376676868924 ] } },
{ "type": "Feature", "properties": { "id": 330, "Region": "Cusco", "X_GEO": -70.785124, "Y_GEO": -13.212104, "Area_ha": 7.126 }, "geometry": { "type": "Point", "coordinates": [ -70.785124326591671, -13.212103900066339 ] } },
{ "type": "Feature", "properties": { "id": 365, "Region": "Cusco", "X_GEO": -70.543129, "Y_GEO": -13.217655, "Area_ha": 8.367 }, "geometry": { "type": "Point", "coordinates": [ -70.54312872194302, -13.217654741430007 ] } },
{ "type": "Feature", "properties": { "id": 387, "Region": "Cusco", "X_GEO": -70.63223, "Y_GEO": -13.234642, "Area_ha": 23.619 }, "geometry": { "type": "Point", "coordinates": [ -70.632230306827722, -13.234642390748578 ] } },
{ "type": "Feature", "properties": { "id": 405, "Region": "Cusco", "X_GEO": -70.73876, "Y_GEO": -13.274629, "Area_ha": 8.014 }, "geometry": { "type": "Point", "coordinates": [ -70.738759662436991, -13.274628808402818 ] } },
{ "type": "Feature", "properties": { "id": 409, "Region": "Cusco", "X_GEO": -70.730266, "Y_GEO": -13.262145, "Area_ha": 6.25 }, "geometry": { "type": "Point", "coordinates": [ -70.730266382909562, -13.262145362719208 ] } },
{ "type": "Feature", "properties": { "id": 434, "Region": "Cusco", "X_GEO": -70.575783, "Y_GEO": -13.20439, "Area_ha": 0.538 }, "geometry": { "type": "Point", "coordinates": [ -70.573890779684589, -13.206885200360622 ] } },
{ "type": "Feature", "properties": { "id": 482, "Region": "Cusco", "X_GEO": -70.642555, "Y_GEO": -13.170195, "Area_ha": 1.813 }, "geometry": { "type": "Point", "coordinates": [ -70.641599110230601, -13.172193780966257 ] } },
{ "type": "Feature", "properties": { "id": 500, "Region": "Cusco", "X_GEO": -70.721171, "Y_GEO": -13.164666, "Area_ha": 4.799 }, "geometry": { "type": "Point", "coordinates": [ -70.721170876790779, -13.164666267083408 ] } },
{ "type": "Feature", "properties": { "id": 505, "Region": "Cusco", "X_GEO": -70.727582, "Y_GEO": -13.162173, "Area_ha": 4.451 }, "geometry": { "type": "Point", "coordinates": [ -70.727581593843695, -13.162173369726426 ] } },
{ "type": "Feature", "properties": { "id": 538, "Region": "Cusco", "X_GEO": -70.782231, "Y_GEO": -13.159155, "Area_ha": 5.31 }, "geometry": { "type": "Point", "coordinates": [ -70.782231005401172, -13.15915456939582 ] } },
{ "type": "Feature", "properties": { "id": 594, "Region": "Huanuco", "X_GEO": -74.959455, "Y_GEO": -9.602238, "Area_ha": 3.601 }, "geometry": { "type": "Point", "coordinates": [ -74.959454637952931, -9.602237853316138 ] } },
{ "type": "Feature", "properties": { "id": 598, "Region": "Huanuco", "X_GEO": -74.95695, "Y_GEO": -9.59829, "Area_ha": 12.768 }, "geometry": { "type": "Point", "coordinates": [ -74.956124557852974, -9.597406628969475 ] } },
{ "type": "Feature", "properties": { "id": 614, "Region": "Huanuco", "X_GEO": -74.919635, "Y_GEO": -9.611928, "Area_ha": 1.529 }, "geometry": { "type": "Point", "coordinates": [ -74.918639431745163, -9.611711636459678 ] } },
{ "type": "Feature", "properties": { "id": 635, "Region": "Huanuco", "X_GEO": -74.882035, "Y_GEO": -9.576944, "Area_ha": 3.777 }, "geometry": { "type": "Point", "coordinates": [ -74.882034952979751, -9.576943903344297 ] } },
{ "type": "Feature", "properties": { "id": 647, "Region": "Huanuco", "X_GEO": -74.852683, "Y_GEO": -9.582283, "Area_ha": 10.427 }, "geometry": { "type": "Point", "coordinates": [ -74.852683285349002, -9.582283133956928 ] } },
{ "type": "Feature", "properties": { "id": 648, "Region": "Huanuco", "X_GEO": -74.844982, "Y_GEO": -9.585698, "Area_ha": 8.282 }, "geometry": { "type": "Point", "coordinates": [ -74.844981529940341, -9.585698182865546 ] } },
{ "type": "Feature", "properties": { "id": 650, "Region": "Huanuco", "X_GEO": -74.82059, "Y_GEO": -9.571978, "Area_ha": 7.331 }, "geometry": { "type": "Point", "coordinates": [ -74.821167716781872, -9.573389592606286 ] } },
{ "type": "Feature", "properties": { "id": 681, "Region": "Huanuco", "X_GEO": -74.862099, "Y_GEO": -9.359287, "Area_ha": 0.526 }, "geometry": { "type": "Point", "coordinates": [ -74.860395459304954, -9.357070771414936 ] } },
{ "type": "Feature", "properties": { "id": 682, "Region": "Huanuco", "X_GEO": -74.865152, "Y_GEO": -9.356776, "Area_ha": 38.194 }, "geometry": { "type": "Point", "coordinates": [ -74.865152304199, -9.356776055819674 ] } },
{ "type": "Feature", "properties": { "id": 688, "Region": "Huanuco", "X_GEO": -74.875658, "Y_GEO": -9.346329, "Area_ha": 1.63 }, "geometry": { "type": "Point", "coordinates": [ -74.876476067563786, -9.34732143600456 ] } },
{ "type": "Feature", "properties": { "id": 705, "Region": "Huanuco", "X_GEO": -74.909674, "Y_GEO": -9.33465, "Area_ha": 2.771 }, "geometry": { "type": "Point", "coordinates": [ -74.909673550536468, -9.334650404907997 ] } },
{ "type": "Feature", "properties": { "id": 711, "Region": "Huanuco", "X_GEO": -74.917236, "Y_GEO": -9.330907, "Area_ha": 9.286 }, "geometry": { "type": "Point", "coordinates": [ -74.915996747011647, -9.329507833357249 ] } },
{ "type": "Feature", "properties": { "id": 714, "Region": "Huanuco", "X_GEO": -74.869526, "Y_GEO": -9.369627, "Area_ha": 11.696 }, "geometry": { "type": "Point", "coordinates": [ -74.86952644999046, -9.369627123648089 ] } },
{ "type": "Feature", "properties": { "id": 724, "Region": "Huanuco", "X_GEO": -74.876913, "Y_GEO": -9.368022, "Area_ha": 0.685 }, "geometry": { "type": "Point", "coordinates": [ -74.87575529598503, -9.370526311465463 ] } },
{ "type": "Feature", "properties": { "id": 730, "Region": "Huanuco", "X_GEO": -74.893532, "Y_GEO": -9.377932, "Area_ha": 0.261 }, "geometry": { "type": "Point", "coordinates": [ -74.893582263091432, -9.376967269841895 ] } },
{ "type": "Feature", "properties": { "id": 731, "Region": "Huanuco", "X_GEO": -74.901454, "Y_GEO": -9.377085, "Area_ha": 9.658 }, "geometry": { "type": "Point", "coordinates": [ -74.901454233214025, -9.377085133099238 ] } },
{ "type": "Feature", "properties": { "id": 735, "Region": "Huanuco", "X_GEO": -74.926426, "Y_GEO": -9.355396, "Area_ha": 15.495 }, "geometry": { "type": "Point", "coordinates": [ -74.926425899615055, -9.355395898296919 ] } },
{ "type": "Feature", "properties": { "id": 741, "Region": "Huanuco", "X_GEO": -74.966457, "Y_GEO": -9.353763, "Area_ha": 27.632 }, "geometry": { "type": "Point", "coordinates": [ -74.966460003631468, -9.351485136536283 ] } },
{ "type": "Feature", "properties": { "id": 742, "Region": "Huanuco", "X_GEO": -74.959763, "Y_GEO": -9.355982, "Area_ha": 14.033 }, "geometry": { "type": "Point", "coordinates": [ -74.959763077466192, -9.355981903715934 ] } },
{ "type": "Feature", "properties": { "id": 744, "Region": "Huanuco", "X_GEO": -74.959574, "Y_GEO": -9.363516, "Area_ha": 11.393 }, "geometry": { "type": "Point", "coordinates": [ -74.959574413017023, -9.363516043397947 ] } },
{ "type": "Feature", "properties": { "id": 753, "Region": "Huanuco", "X_GEO": -74.940618, "Y_GEO": -9.34366, "Area_ha": 5.67 }, "geometry": { "type": "Point", "coordinates": [ -74.940618361189138, -9.343660074913256 ] } },
{ "type": "Feature", "properties": { "id": 755, "Region": "Huanuco", "X_GEO": -74.931682, "Y_GEO": -9.345926, "Area_ha": 6.69 }, "geometry": { "type": "Point", "coordinates": [ -74.932303262780565, -9.34387476148248 ] } },
{ "type": "Feature", "properties": { "id": 768, "Region": "Huanuco", "X_GEO": -74.947372, "Y_GEO": -9.338192, "Area_ha": 10.479 }, "geometry": { "type": "Point", "coordinates": [ -74.947372052321427, -9.338191788138291 ] } },
{ "type": "Feature", "properties": { "id": 773, "Region": "Huanuco", "X_GEO": -74.952845, "Y_GEO": -9.327433, "Area_ha": 9.467 }, "geometry": { "type": "Point", "coordinates": [ -74.952845488962581, -9.32743262090136 ] } },
{ "type": "Feature", "properties": { "id": 776, "Region": "Huanuco", "X_GEO": -74.916937, "Y_GEO": -9.335478, "Area_ha": 8.827 }, "geometry": { "type": "Point", "coordinates": [ -74.916936786776418, -9.33547754209423 ] } },
{ "type": "Feature", "properties": { "id": 777, "Region": "Huanuco", "X_GEO": -74.926643, "Y_GEO": -9.335354, "Area_ha": 11.934 }, "geometry": { "type": "Point", "coordinates": [ -74.926643478441321, -9.335353914198913 ] } },
{ "type": "Feature", "properties": { "id": 783, "Region": "Huanuco", "X_GEO": -74.933834, "Y_GEO": -9.328005, "Area_ha": 14.647 }, "geometry": { "type": "Point", "coordinates": [ -74.933833801722201, -9.328005044906007 ] } },
{ "type": "Feature", "properties": { "id": 784, "Region": "Huanuco", "X_GEO": -74.93898, "Y_GEO": -9.323426, "Area_ha": 13.942 }, "geometry": { "type": "Point", "coordinates": [ -74.938980480168553, -9.323425767021734 ] } },
{ "type": "Feature", "properties": { "id": 829, "Region": "Huanuco", "X_GEO": -74.83436, "Y_GEO": -9.580801, "Area_ha": 113.35 }, "geometry": { "type": "Point", "coordinates": [ -74.83398826567047, -9.577706713817379 ] } },
{ "type": "Feature", "properties": { "id": 830, "Region": "Huanuco", "X_GEO": -74.838875, "Y_GEO": -9.576247, "Area_ha": 3.592 }, "geometry": { "type": "Point", "coordinates": [ -74.83887482770308, -9.576247256544923 ] } },
{ "type": "Feature", "properties": { "id": 832, "Region": "Huanuco", "X_GEO": -74.829803, "Y_GEO": -9.58113, "Area_ha": 2.288 }, "geometry": { "type": "Point", "coordinates": [ -74.829803173753589, -9.581130339012454 ] } },
{ "type": "Feature", "properties": { "id": 833, "Region": "Huanuco", "X_GEO": -74.831607, "Y_GEO": -9.589691, "Area_ha": 0.939 }, "geometry": { "type": "Point", "coordinates": [ -74.831519108091328, -9.587256309806872 ] } },
{ "type": "Feature", "properties": { "id": 834, "Region": "Huanuco", "X_GEO": -74.832944, "Y_GEO": -9.584933, "Area_ha": 0.173 }, "geometry": { "type": "Point", "coordinates": [ -74.834904857076992, -9.585918418062301 ] } },
{ "type": "Feature", "properties": { "id": 836, "Region": "Huanuco", "X_GEO": -74.840921, "Y_GEO": -9.58232, "Area_ha": 0.961 }, "geometry": { "type": "Point", "coordinates": [ -74.83764903266102, -9.584984199749334 ] } },
{ "type": "Feature", "properties": { "id": 849, "Region": "Huanuco", "X_GEO": -74.869276, "Y_GEO": -9.588045, "Area_ha": 97.596 }, "geometry": { "type": "Point", "coordinates": [ -74.869276248571126, -9.588044920088754 ] } },
{ "type": "Feature", "properties": { "id": 854, "Region": "Huanuco", "X_GEO": -74.877208, "Y_GEO": -9.594903, "Area_ha": 4.392 }, "geometry": { "type": "Point", "coordinates": [ -74.882155035174051, -9.594641605948464 ] } },
{ "type": "Feature", "properties": { "id": 855, "Region": "Huanuco", "X_GEO": -74.892922, "Y_GEO": -9.602999, "Area_ha": 28.095 }, "geometry": { "type": "Point", "coordinates": [ -74.89292244490386, -9.602998900573336 ] } },
{ "type": "Feature", "properties": { "id": 956, "Region": "Loreto", "X_GEO": -77.377131, "Y_GEO": -4.62437, "Area_ha": 3.075 }, "geometry": { "type": "Point", "coordinates": [ -77.37713091491274, -4.624369888985091 ] } },
{ "type": "Feature", "properties": { "id": 960, "Region": "Loreto", "X_GEO": -77.380874, "Y_GEO": -4.573316, "Area_ha": 6.975 }, "geometry": { "type": "Point", "coordinates": [ -77.380874089362266, -4.573316331885974 ] } },
{ "type": "Feature", "properties": { "id": 962, "Region": "Loreto", "X_GEO": -77.38567, "Y_GEO": -4.569159, "Area_ha": 0.165 }, "geometry": { "type": "Point", "coordinates": [ -77.384740313321075, -4.569940656422612 ] } },
{ "type": "Feature", "properties": { "id": 976, "Region": "Loreto", "X_GEO": -77.421831, "Y_GEO": -4.637376, "Area_ha": 14.336 }, "geometry": { "type": "Point", "coordinates": [ -77.421830975206035, -4.637376388813259 ] } },
{ "type": "Feature", "properties": { "id": 979, "Region": "Loreto", "X_GEO": -77.426582, "Y_GEO": -4.613728, "Area_ha": 2.905 }, "geometry": { "type": "Point", "coordinates": [ -77.426582431551807, -4.613727637652916 ] } },
{ "type": "Feature", "properties": { "id": 985, "Region": "Loreto", "X_GEO": -77.426086, "Y_GEO": -4.590142, "Area_ha": 3.502 }, "geometry": { "type": "Point", "coordinates": [ -77.427435396921396, -4.592319826483855 ] } },
{ "type": "Feature", "properties": { "id": 990, "Region": "Loreto", "X_GEO": -77.440775, "Y_GEO": -4.582826, "Area_ha": 1.439 }, "geometry": { "type": "Point", "coordinates": [ -77.440774566403135, -4.582825884725023 ] } },
{ "type": "Feature", "properties": { "id": 1012, "Region": "Loreto", "X_GEO": -77.416308, "Y_GEO": -4.535229, "Area_ha": 6.556 }, "geometry": { "type": "Point", "coordinates": [ -77.416307961606009, -4.535228634862179 ] } },
{ "type": "Feature", "properties": { "id": 1070, "Region": "Loreto", "X_GEO": -77.443191, "Y_GEO": -4.438417, "Area_ha": 0.558 }, "geometry": { "type": "Point", "coordinates": [ -77.446079173344899, -4.440681735016206 ] } },
{ "type": "Feature", "properties": { "id": 1119, "Region": "Puno", "X_GEO": -70.222458, "Y_GEO": -13.246446, "Area_ha": 2.206 }, "geometry": { "type": "Point", "coordinates": [ -70.22245844624706, -13.246445580405899 ] } },
{ "type": "Feature", "properties": { "id": 1127, "Region": "Puno", "X_GEO": -70.280543, "Y_GEO": -13.230225, "Area_ha": 2.993 }, "geometry": { "type": "Point", "coordinates": [ -70.280543186726916, -13.230224725277168 ] } },
{ "type": "Feature", "properties": { "id": 1136, "Region": "Puno", "X_GEO": -70.321881, "Y_GEO": -13.22056, "Area_ha": 1.995 }, "geometry": { "type": "Point", "coordinates": [ -70.321881368189324, -13.220560272159918 ] } },
{ "type": "Feature", "properties": { "id": 1159, "Region": "Puno", "X_GEO": -70.333589, "Y_GEO": -13.346433, "Area_ha": 0.19 }, "geometry": { "type": "Point", "coordinates": [ -70.334023602273547, -13.34711741438773 ] } },
{ "type": "Feature", "properties": { "id": 1164, "Region": "Puno", "X_GEO": -69.138992, "Y_GEO": -14.046528, "Area_ha": 42.534 }, "geometry": { "type": "Point", "coordinates": [ -69.138991688713091, -14.046527911998973 ] } },
{ "type": "Feature", "properties": { "id": 1166, "Region": "Puno", "X_GEO": -69.157208, "Y_GEO": -14.050586, "Area_ha": 31.799 }, "geometry": { "type": "Point", "coordinates": [ -69.155585137872947, -14.050451236547728 ] } },
{ "type": "Feature", "properties": { "id": 1187, "Region": "Puno", "X_GEO": -69.361945, "Y_GEO": -14.033752, "Area_ha": 6.842 }, "geometry": { "type": "Point", "coordinates": [ -69.363039984613707, -14.033768725250686 ] } },
{ "type": "Feature", "properties": { "id": 1193, "Region": "Puno", "X_GEO": -69.346217, "Y_GEO": -14.046227, "Area_ha": 5.446 }, "geometry": { "type": "Point", "coordinates": [ -69.346217156815456, -14.046226595718498 ] } },
{ "type": "Feature", "properties": { "id": 1195, "Region": "Puno", "X_GEO": -69.339115, "Y_GEO": -14.033751, "Area_ha": 2.266 }, "geometry": { "type": "Point", "coordinates": [ -69.339114691061226, -14.033750782065171 ] } },
{ "type": "Feature", "properties": { "id": 1196, "Region": "Puno", "X_GEO": -69.337635, "Y_GEO": -14.047831, "Area_ha": 2.033 }, "geometry": { "type": "Point", "coordinates": [ -69.348476072768406, -14.041314619873846 ] } },
{ "type": "Feature", "properties": { "id": 1198, "Region": "Puno", "X_GEO": -69.341473, "Y_GEO": -14.04681, "Area_ha": 7.82 }, "geometry": { "type": "Point", "coordinates": [ -69.351066937232304, -14.037997344812599 ] } },
{ "type": "Feature", "properties": { "id": 1245, "Region": "Puno", "X_GEO": -69.164594, "Y_GEO": -14.052385, "Area_ha": 2.909 }, "geometry": { "type": "Point", "coordinates": [ -69.159372261880605, -14.050337338081331 ] } },
{ "type": "Feature", "properties": { "id": 1246, "Region": "Puno", "X_GEO": -69.166137, "Y_GEO": -14.055213, "Area_ha": 4.525 }, "geometry": { "type": "Point", "coordinates": [ -69.150170393805823, -14.049295216717042 ] } },
{ "type": "Feature", "properties": { "id": 1248, "Region": "Puno", "X_GEO": -69.180141, "Y_GEO": -14.059333, "Area_ha": 0.433 }, "geometry": { "type": "Point", "coordinates": [ -69.193826842738503, -14.06463387223635 ] } },
{ "type": "Feature", "properties": { "id": 1249, "Region": "Puno", "X_GEO": -69.181084, "Y_GEO": -14.06399, "Area_ha": 3.311 }, "geometry": { "type": "Point", "coordinates": [ -69.181084175102356, -14.063989985263168 ] } },
{ "type": "Feature", "properties": { "id": 1276, "Region": "Puno", "X_GEO": -69.154991, "Y_GEO": -14.226945, "Area_ha": 3.778 }, "geometry": { "type": "Point", "coordinates": [ -69.154991301780342, -14.226945247445839 ] } },
{ "type": "Feature", "properties": { "id": 1278, "Region": "Puno", "X_GEO": -69.155313, "Y_GEO": -14.233765, "Area_ha": 0.263 }, "geometry": { "type": "Point", "coordinates": [ -69.155313085566718, -14.233765358726677 ] } },
{ "type": "Feature", "properties": { "id": 1284, "Region": "Puno", "X_GEO": -69.164539, "Y_GEO": -14.264328, "Area_ha": 1.15 }, "geometry": { "type": "Point", "coordinates": [ -69.164538643763393, -14.264327670436741 ] } },
{ "type": "Feature", "properties": { "id": 1328, "Region": "Puno", "X_GEO": -70.2804, "Y_GEO": -13.233682, "Area_ha": 5.055 }, "geometry": { "type": "Point", "coordinates": [ -70.27662088331374, -13.234645463873397 ] } },
{ "type": "Feature", "properties": { "id": 1342, "Region": "Puno", "X_GEO": -70.243356, "Y_GEO": -13.246002, "Area_ha": 0.735 }, "geometry": { "type": "Point", "coordinates": [ -70.243355932178503, -13.246002065251277 ] } },
{ "type": "Feature", "properties": { "id": 1358, "Region": "Puno", "X_GEO": -70.229316, "Y_GEO": -13.248758, "Area_ha": 3.982 }, "geometry": { "type": "Point", "coordinates": [ -70.229315733843606, -13.248758375444512 ] } },
{ "type": "Feature", "properties": { "id": 1416, "Region": "Puno", "X_GEO": -70.333561, "Y_GEO": -13.274133, "Area_ha": 1.39 }, "geometry": { "type": "Point", "coordinates": [ -70.334773087217059, -13.274512590415714 ] } },
{ "type": "Feature", "properties": { "id": 1491, "Region": "Puno", "X_GEO": -70.33466, "Y_GEO": -13.374365, "Area_ha": 0.215 }, "geometry": { "type": "Point", "coordinates": [ -70.336753488432606, -13.37410871196578 ] } },
{ "type": "Feature", "properties": { "id": 1498, "Region": "Puno", "X_GEO": -70.324108, "Y_GEO": -13.350298, "Area_ha": 8.331 }, "geometry": { "type": "Point", "coordinates": [ -70.323506734888525, -13.35122029729281 ] } },
{ "type": "Feature", "properties": { "id": 1513, "Region": "Puno", "X_GEO": -69.076709, "Y_GEO": -14.173193, "Area_ha": 2.08 }, "geometry": { "type": "Point", "coordinates": [ -69.076708670050863, -14.173193087138198 ] } },
{ "type": "Feature", "properties": { "id": 1526, "Region": "Puno", "X_GEO": -69.029817, "Y_GEO": -14.106273, "Area_ha": 0.432 }, "geometry": { "type": "Point", "coordinates": [ -69.029097137529931, -14.106294557909511 ] } },
{ "type": "Feature", "properties": { "id": 1528, "Region": "Puno", "X_GEO": -69.005589, "Y_GEO": -14.092956, "Area_ha": 4.59 }, "geometry": { "type": "Point", "coordinates": [ -69.005589150708758, -14.092956061389929 ] } },
{ "type": "Feature", "properties": { "id": 1533, "Region": "Puno", "X_GEO": -69.135435, "Y_GEO": -14.043877, "Area_ha": 1.13 }, "geometry": { "type": "Point", "coordinates": [ -69.143586641524209, -14.051336990752311 ] } }
]
}
