{
"type": "FeatureCollection",
"name": "v4.8_oxbow_negatives",
"crs": { "type": "name", "properties": { "name": "urn:ogc:def:crs:OGC:1.3:CRS84" } },
"features": [
{ "type": "Feature", "properties": { "confidence": 0.96408271789550781 }, "geometry": { "type": "Point", "coordinates": [ -73.618931748131388, -5.925904249202965 ] } },
{ "type": "Feature", "properties": { "confidence": 0.84957152605056763 }, "geometry": { "type": "Point", "coordinates": [ -74.256585787609879, -5.696942567626334 ] } },
{ "type": "Feature", "properties": { "confidence": 0.93342053890228271 }, "geometry": { "type": "Point", "coordinates": [ -73.852522356459716, -5.090651527125418 ] } },
{ "type": "Feature", "properties": { "confidence": 0.98247510194778442 }, "geometry": { "type": "Point", "coordinates": [ -74.007813685880933, -5.431694446854202 ] } },
{ "type": "Feature", "properties": { "confidence": 0.83818298578262329 }, "geometry": { "type": "Point", "coordinates": [ -74.196582584554633, -5.197583344648886 ] } },
{ "type": "Feature", "properties": { "confidence": 0.95693665742874146 }, "geometry": { "type": "Point", "coordinates": [ -74.179237332747888, -5.175846150222323 ] } },
{ "type": "Feature", "properties": { "confidence": 0.99651128053665161 }, "geometry": { "type": "Point", "coordinates": [ -74.177069176272056, -5.175846150222323 ] } },
{ "type": "Feature", "properties": { "confidence": 0.81731921434402466 }, "geometry": { "type": "Point", "coordinates": [ -74.079783812261383, -5.078022692747817 ] } },
{ "type": "Feature", "properties": { "confidence": 0.95037442445755005 }, "geometry": { "type": "Point", "coordinates": [ -74.412578080351423, -5.764445442167851 ] } },
{ "type": "Feature", "properties": { "confidence": 0.93797826766967773 }, "geometry": { "type": "Point", "coordinates": [ -74.28683594317117, -5.764327853005331 ] } },
{ "type": "Feature", "properties": { "confidence": 0.8398362398147583 }, "geometry": { "type": "Point", "coordinates": [ -74.28683594317117, -5.766501494286852 ] } },
{ "type": "Feature", "properties": { "confidence": 0.81738615036010742 }, "geometry": { "type": "Point", "coordinates": [ -74.815778547210883, -5.634449813119446 ] } },
{ "type": "Feature", "properties": { "confidence": 0.81233161687850952 }, "geometry": { "type": "Point", "coordinates": [ -74.804938743113823, -5.634449813119446 ] } },
{ "type": "Feature", "properties": { "confidence": 0.99142313003540039 }, "geometry": { "type": "Point", "coordinates": [ -74.432357171311509, -5.447519883530294 ] } },
{ "type": "Feature", "properties": { "confidence": 0.99660992622375488 }, "geometry": { "type": "Point", "coordinates": [ -74.430188779539989, -5.458384997138772 ] } },
{ "type": "Feature", "properties": { "confidence": 0.92100203037261963 }, "geometry": { "type": "Point", "coordinates": [ -67.452788671999897, -13.767370310213735 ] } },
{ "type": "Feature", "properties": { "confidence": 0.91758185625076294 }, "geometry": { "type": "Point", "coordinates": [ -67.450554730721365, -13.771737254151637 ] } },
{ "type": "Feature", "properties": { "confidence": 0.99782556295394897 }, "geometry": { "type": "Point", "coordinates": [ -67.380132766816814, -13.660715247383109 ] } },
{ "type": "Feature", "properties": { "confidence": 0.99605029821395874 }, "geometry": { "type": "Point", "coordinates": [ -67.380132766816814, -13.662899046755399 ] } },
{ "type": "Feature", "properties": { "confidence": 0.99658370018005371 }, "geometry": { "type": "Point", "coordinates": [ -67.380132766816814, -13.665082846127696 ] } },
{ "type": "Feature", "properties": { "confidence": 0.98344141244888306 }, "geometry": { "type": "Point", "coordinates": [ -67.380132766816814, -13.667266645499987 ] } },
{ "type": "Feature", "properties": { "confidence": 0.99972712993621826 }, "geometry": { "type": "Point", "coordinates": [ -67.377899497814113, -13.656347648638524 ] } },
{ "type": "Feature", "properties": { "confidence": 0.99672591686248779 }, "geometry": { "type": "Point", "coordinates": [ -67.377899497814113, -13.669450444872281 ] } },
{ "type": "Feature", "properties": { "confidence": 0.92789340019226074 }, "geometry": { "type": "Point", "coordinates": [ -67.371199690805923, -13.669450444872281 ] } },
{ "type": "Feature", "properties": { "confidence": 0.99784725904464722 }, "geometry": { "type": "Point", "coordinates": [ -67.368966421803208, -13.654163849266231 ] } },
{ "type": "Feature", "properties": { "confidence": 0.99002599716186523 }, "geometry": { "type": "Point", "coordinates": [ -67.366733152800478, -13.658531448010816 ] } },
{ "type": "Feature", "properties": { "confidence": 0.98079955577850342 }, "geometry": { "type": "Point", "coordinates": [ -67.366733152800478, -13.665082846127696 ] } },
{ "type": "Feature", "properties": { "confidence": 0.99543994665145874 }, "geometry": { "type": "Point", "coordinates": [ -67.446771309134519, -13.695994646021042 ] } },
{ "type": "Feature", "properties": { "confidence": 0.99995821714401245 }, "geometry": { "type": "Point", "coordinates": [ -67.364858744369087, -13.632674403044287 ] } },
{ "type": "Feature", "properties": { "confidence": 0.99864107370376587 }, "geometry": { "type": "Point", "coordinates": [ -67.362626023236515, -13.632674403044287 ] } },
{ "type": "Feature", "properties": { "confidence": 0.99965870380401611 }, "geometry": { "type": "Point", "coordinates": [ -67.353695138706158, -13.630490651645857 ] } },
{ "type": "Feature", "properties": { "confidence": 0.83566397428512573 }, "geometry": { "type": "Point", "coordinates": [ -67.342891450064727, -13.599561140404543 ] } },
{ "type": "Feature", "properties": { "confidence": 0.9991191029548645 }, "geometry": { "type": "Point", "coordinates": [ -67.340658307176426, -13.625771146903121 ] } },
{ "type": "Feature", "properties": { "confidence": 0.93005907535552979 }, "geometry": { "type": "Point", "coordinates": [ -67.336192021399782, -13.621402812486689 ] } },
{ "type": "Feature", "properties": { "confidence": 0.91072142124176025 }, "geometry": { "type": "Point", "coordinates": [ -67.333958878511481, -13.619218645278476 ] } },
{ "type": "Feature", "properties": { "confidence": 0.98217815160751343 }, "geometry": { "type": "Point", "coordinates": [ -67.329492592734852, -13.599561140404541 ] } },
{ "type": "Feature", "properties": { "confidence": 0.99957555532455444 }, "geometry": { "type": "Point", "coordinates": [ -67.327259449846551, -13.597376973196324 ] } },
{ "type": "Feature", "properties": { "confidence": 0.99494141340255737 }, "geometry": { "type": "Point", "coordinates": [ -67.327259449846551, -13.599561140404543 ] } },
{ "type": "Feature", "properties": { "confidence": 0.98869597911834717 }, "geometry": { "type": "Point", "coordinates": [ -67.327259449846551, -13.601745307612756 ] } },
{ "type": "Feature", "properties": { "confidence": 0.99976211786270142 }, "geometry": { "type": "Point", "coordinates": [ -67.32502630695825, -13.597376973196326 ] } },
{ "type": "Feature", "properties": { "confidence": 0.99914741516113281 }, "geometry": { "type": "Point", "coordinates": [ -67.32502630695825, -13.599561140404541 ] } },
{ "type": "Feature", "properties": { "confidence": 0.89480900764465332 }, "geometry": { "type": "Point", "coordinates": [ -67.322793164069935, -13.595192805988113 ] } },
{ "type": "Feature", "properties": { "confidence": 0.99982857704162598 }, "geometry": { "type": "Point", "coordinates": [ -67.322793164069935, -13.599561140404541 ] } },
{ "type": "Feature", "properties": { "confidence": 0.97497570514678955 }, "geometry": { "type": "Point", "coordinates": [ -67.345485358923042, -13.554052765214916 ] } },
{ "type": "Feature", "properties": { "confidence": 0.99502003192901611 }, "geometry": { "type": "Point", "coordinates": [ -67.343252763773393, -13.554052765214916 ] } },
{ "type": "Feature", "properties": { "confidence": 0.99812150001525879 }, "geometry": { "type": "Point", "coordinates": [ -67.343252763773393, -13.578078056283507 ] } },
{ "type": "Feature", "properties": { "confidence": 0.85477668046951294 }, "geometry": { "type": "Point", "coordinates": [ -67.341020168623757, -13.556236882584786 ] } },
{ "type": "Feature", "properties": { "confidence": 0.99852496385574341 }, "geometry": { "type": "Point", "coordinates": [ -67.341020168623757, -13.578078056283509 ] } },
{ "type": "Feature", "properties": { "confidence": 0.99266761541366577 }, "geometry": { "type": "Point", "coordinates": [ -67.338787573474121, -13.556236882584786 ] } },
{ "type": "Feature", "properties": { "confidence": 0.91638314723968506 }, "geometry": { "type": "Point", "coordinates": [ -67.338787573474121, -13.575893938913635 ] } },
{ "type": "Feature", "properties": { "confidence": 0.99735391139984131 }, "geometry": { "type": "Point", "coordinates": [ -67.336554978324486, -13.558420999954658 ] } },
{ "type": "Feature", "properties": { "confidence": 0.99153929948806763 }, "geometry": { "type": "Point", "coordinates": [ -67.336554978324486, -13.575893938913635 ] } },
{ "type": "Feature", "properties": { "confidence": 0.95342904329299927 }, "geometry": { "type": "Point", "coordinates": [ -67.334322383174836, -13.560605117324531 ] } },
{ "type": "Feature", "properties": { "confidence": 0.99986183643341064 }, "geometry": { "type": "Point", "coordinates": [ -67.334322383174836, -13.562789234694405 ] } },
{ "type": "Feature", "properties": { "confidence": 0.99660879373550415 }, "geometry": { "type": "Point", "coordinates": [ -67.334322383174836, -13.573709821543767 ] } },
{ "type": "Feature", "properties": { "confidence": 0.99038106203079224 }, "geometry": { "type": "Point", "coordinates": [ -67.332089788025201, -13.567157469434147 ] } },
{ "type": "Feature", "properties": { "confidence": 0.99516886472702026 }, "geometry": { "type": "Point", "coordinates": [ -67.332089788025201, -13.56934158680402 ] } },
{ "type": "Feature", "properties": { "confidence": 0.99711877107620239 }, "geometry": { "type": "Point", "coordinates": [ -67.332089788025201, -13.571525704173894 ] } },
{ "type": "Feature", "properties": { "confidence": 0.99968904256820679 }, "geometry": { "type": "Point", "coordinates": [ -67.327624597725929, -13.582446291023254 ] } },
{ "type": "Feature", "properties": { "confidence": 0.97979491949081421 }, "geometry": { "type": "Point", "coordinates": [ -67.323159407426644, -13.580262173653383 ] } },
{ "type": "Feature", "properties": { "confidence": 0.99959695339202881 }, "geometry": { "type": "Point", "coordinates": [ -67.320926812276994, -13.580262173653383 ] } },
{ "type": "Feature", "properties": { "confidence": 0.99991309642791748 }, "geometry": { "type": "Point", "coordinates": [ -67.318694217127373, -13.582446291023254 ] } },
{ "type": "Feature", "properties": { "confidence": 0.92391675710678101 }, "geometry": { "type": "Point", "coordinates": [ -67.318694217127373, -13.584630408393126 ] } },
{ "type": "Feature", "properties": { "confidence": 0.90688461065292358 }, "geometry": { "type": "Point", "coordinates": [ -67.318694217127373, -13.588998643132872 ] } },
{ "type": "Feature", "properties": { "confidence": 0.99971890449523926 }, "geometry": { "type": "Point", "coordinates": [ -67.318694217127373, -13.591182760502743 ] } },
{ "type": "Feature", "properties": { "confidence": 0.96514445543289185 }, "geometry": { "type": "Point", "coordinates": [ -67.37860915837237, -13.589346352604917 ] } },
{ "type": "Feature", "properties": { "confidence": 0.98515093326568604 }, "geometry": { "type": "Point", "coordinates": [ -67.328350301572016, -13.445562298061166 ] } },
{ "type": "Feature", "properties": { "confidence": 0.96810013055801392 }, "geometry": { "type": "Point", "coordinates": [ -67.328350301572002, -13.447746315727436 ] } },
{ "type": "Feature", "properties": { "confidence": 0.98497635126113892 }, "geometry": { "type": "Point", "coordinates": [ -67.326118795619962, -13.449930333393709 ] } },
{ "type": "Feature", "properties": { "confidence": 0.98256152868270874 }, "geometry": { "type": "Point", "coordinates": [ -67.323887289667908, -13.449930333393709 ] } },
{ "type": "Feature", "properties": { "confidence": 0.98675382137298584 }, "geometry": { "type": "Point", "coordinates": [ -67.323887289667908, -13.452114351059976 ] } },
{ "type": "Feature", "properties": { "confidence": 0.8450809121131897 }, "geometry": { "type": "Point", "coordinates": [ -67.31496126585975, -13.439010245062356 ] } },
{ "type": "Feature", "properties": { "confidence": 0.98808592557907104 }, "geometry": { "type": "Point", "coordinates": [ -67.312729759907711, -13.443378280394898 ] } },
{ "type": "Feature", "properties": { "confidence": 0.98673993349075317 }, "geometry": { "type": "Point", "coordinates": [ -67.312729759907711, -13.445562298061166 ] } },
{ "type": "Feature", "properties": { "confidence": 0.99140471220016479 }, "geometry": { "type": "Point", "coordinates": [ -67.399392691261966, -13.439363807842369 ] } },
{ "type": "Feature", "properties": { "confidence": 0.99903184175491333 }, "geometry": { "type": "Point", "coordinates": [ -67.397161601181367, -13.439363807842369 ] } },
{ "type": "Feature", "properties": { "confidence": 0.99905431270599365 }, "geometry": { "type": "Point", "coordinates": [ -67.394930511100782, -13.439363807842369 ] } },
{ "type": "Feature", "properties": { "confidence": 0.9511757493019104 }, "geometry": { "type": "Point", "coordinates": [ -67.370388520214291, -13.456832667198192 ] } },
{ "type": "Feature", "properties": { "confidence": 0.9545590877532959 }, "geometry": { "type": "Point", "coordinates": [ -67.368157430133735, -13.459016274617674 ] } },
{ "type": "Feature", "properties": { "confidence": 0.99645233154296875 }, "geometry": { "type": "Point", "coordinates": [ -67.365926340053122, -13.459016274617674 ] } },
{ "type": "Feature", "properties": { "confidence": 0.99840849637985229 }, "geometry": { "type": "Point", "coordinates": [ -67.363695249972551, -13.474301526554022 ] } },
{ "type": "Feature", "properties": { "confidence": 0.98895120620727539 }, "geometry": { "type": "Point", "coordinates": [ -67.361464159891952, -13.467750704295586 ] } },
{ "type": "Feature", "properties": { "confidence": 0.99834644794464111 }, "geometry": { "type": "Point", "coordinates": [ -67.359233069811367, -13.461199882037151 ] } },
{ "type": "Feature", "properties": { "confidence": 0.83903354406356812 }, "geometry": { "type": "Point", "coordinates": [ -67.354770889650183, -13.441547415261846 ] } },
{ "type": "Feature", "properties": { "confidence": 0.95477664470672607 }, "geometry": { "type": "Point", "coordinates": [ -67.335403754169761, -13.428444329219946 ] } },
{ "type": "Feature", "properties": { "confidence": 0.86747008562088013 }, "geometry": { "type": "Point", "coordinates": [ -67.333172789681441, -13.42626036141921 ] } },
{ "type": "Feature", "properties": { "confidence": 0.99386149644851685 }, "geometry": { "type": "Point", "coordinates": [ -67.333172789681441, -13.430628297020681 ] } },
{ "type": "Feature", "properties": { "confidence": 0.97140222787857056 }, "geometry": { "type": "Point", "coordinates": [ -67.330941825193136, -13.432812264821415 ] } },
{ "type": "Feature", "properties": { "confidence": 0.9866606593132019 }, "geometry": { "type": "Point", "coordinates": [ -67.319787002751582, -13.424076393618472 ] } },
{ "type": "Feature", "properties": { "confidence": 0.99645483493804932 }, "geometry": { "type": "Point", "coordinates": [ -67.317556038263291, -13.42626036141921 ] } },
{ "type": "Feature", "properties": { "confidence": 0.99581938982009888 }, "geometry": { "type": "Point", "coordinates": [ -67.317556038263291, -13.434996232622154 ] } },
{ "type": "Feature", "properties": { "confidence": 0.81432855129241943 }, "geometry": { "type": "Point", "coordinates": [ -67.315325073774972, -13.428444329219946 ] } },
{ "type": "Feature", "properties": { "confidence": 0.94862878322601318 }, "geometry": { "type": "Point", "coordinates": [ -67.313094109286652, -13.428444329219946 ] } },
{ "type": "Feature", "properties": { "confidence": 0.99667465686798096 }, "geometry": { "type": "Point", "coordinates": [ -67.310863144798347, -13.410972586814058 ] } },
{ "type": "Feature", "properties": { "confidence": 0.85473448038101196 }, "geometry": { "type": "Point", "coordinates": [ -67.310863144798347, -13.428444329219948 ] } },
{ "type": "Feature", "properties": { "confidence": 0.99930649995803833 }, "geometry": { "type": "Point", "coordinates": [ -67.308632180310042, -13.413156554614796 ] } },
{ "type": "Feature", "properties": { "confidence": 0.99341279268264771 }, "geometry": { "type": "Point", "coordinates": [ -67.306401215821751, -13.415340522415528 ] } },
{ "type": "Feature", "properties": { "confidence": 0.96391236782073975 }, "geometry": { "type": "Point", "coordinates": [ -67.306401215821751, -13.417524490216264 ] } },
{ "type": "Feature", "properties": { "confidence": 0.96839213371276855 }, "geometry": { "type": "Point", "coordinates": [ -67.401968024310776, -13.420054475902727 ] } },
{ "type": "Feature", "properties": { "confidence": 0.93244463205337524 }, "geometry": { "type": "Point", "coordinates": [ -67.401968024310776, -13.422238035309658 ] } },
{ "type": "Feature", "properties": { "confidence": 0.9884459376335144 }, "geometry": { "type": "Point", "coordinates": [ -67.401968024310776, -13.424421594716591 ] } },
{ "type": "Feature", "properties": { "confidence": 0.99934154748916626 }, "geometry": { "type": "Point", "coordinates": [ -67.401968024310776, -13.426605154123523 ] } },
{ "type": "Feature", "properties": { "confidence": 0.9994274377822876 }, "geometry": { "type": "Point", "coordinates": [ -67.401968024310776, -13.428788713530452 ] } },
{ "type": "Feature", "properties": { "confidence": 0.99386656284332275 }, "geometry": { "type": "Point", "coordinates": [ -67.401968024310776, -13.430972272937383 ] } },
{ "type": "Feature", "properties": { "confidence": 0.99463361501693726 }, "geometry": { "type": "Point", "coordinates": [ -67.399737473736067, -13.417870916495795 ] } },
{ "type": "Feature", "properties": { "confidence": 0.99998146295547485 }, "geometry": { "type": "Point", "coordinates": [ -67.393045822011914, -13.417870916495795 ] } },
{ "type": "Feature", "properties": { "confidence": 0.85289692878723145 }, "geometry": { "type": "Point", "coordinates": [ -67.390815271437219, -13.435339391751249 ] } },
{ "type": "Feature", "properties": { "confidence": 0.99952906370162964 }, "geometry": { "type": "Point", "coordinates": [ -67.388584720862511, -13.420054475902727 ] } },
{ "type": "Feature", "properties": { "confidence": 0.96522617340087891 }, "geometry": { "type": "Point", "coordinates": [ -67.388584720862511, -13.433155832344317 ] } },
{ "type": "Feature", "properties": { "confidence": 0.99811291694641113 }, "geometry": { "type": "Point", "coordinates": [ -67.386354170287802, -13.422238035309658 ] } },
{ "type": "Feature", "properties": { "confidence": 0.97866243124008179 }, "geometry": { "type": "Point", "coordinates": [ -67.386354170287802, -13.430972272937383 ] } },
{ "type": "Feature", "properties": { "confidence": 0.99678581953048706 }, "geometry": { "type": "Point", "coordinates": [ -67.384123619713094, -13.424421594716591 ] } },
{ "type": "Feature", "properties": { "confidence": 0.99998795986175537 }, "geometry": { "type": "Point", "coordinates": [ -67.384123619713094, -13.430972272937383 ] } },
{ "type": "Feature", "properties": { "confidence": 0.98977905511856079 }, "geometry": { "type": "Point", "coordinates": [ -67.381893069138371, -13.430972272937383 ] } },
{ "type": "Feature", "properties": { "confidence": 0.93372714519500732 }, "geometry": { "type": "Point", "coordinates": [ -67.24764992853332, -13.23914163214274 ] } },
{ "type": "Feature", "properties": { "confidence": 0.99148231744766235 }, "geometry": { "type": "Point", "coordinates": [ -67.236872739279249, -13.230034781712639 ] } },
{ "type": "Feature", "properties": { "confidence": 0.99648523330688477 }, "geometry": { "type": "Point", "coordinates": [ -67.236872739279249, -13.232219399729393 ] } },
{ "type": "Feature", "properties": { "confidence": 0.99944883584976196 }, "geometry": { "type": "Point", "coordinates": [ -67.236872739279249, -13.234404017746145 ] } },
{ "type": "Feature", "properties": { "confidence": 0.99940872192382812 }, "geometry": { "type": "Point", "coordinates": [ -67.236872739279249, -13.236588635762905 ] } },
{ "type": "Feature", "properties": { "confidence": 0.99928277730941772 }, "geometry": { "type": "Point", "coordinates": [ -67.236872739279249, -13.238773253779657 ] } },
{ "type": "Feature", "properties": { "confidence": 0.99918293952941895 }, "geometry": { "type": "Point", "coordinates": [ -67.236872739279249, -13.240957871796411 ] } },
{ "type": "Feature", "properties": { "confidence": 0.89212536811828613 }, "geometry": { "type": "Point", "coordinates": [ -67.166276560623643, -13.177596093004929 ] } },
{ "type": "Feature", "properties": { "confidence": 0.99908721446990967 }, "geometry": { "type": "Point", "coordinates": [ -67.164046535317496, -13.177596093004929 ] } },
{ "type": "Feature", "properties": { "confidence": 0.95026087760925293 }, "geometry": { "type": "Point", "coordinates": [ -67.161816510011349, -13.177596093004929 ] } },
{ "type": "Feature", "properties": { "confidence": 0.9990009069442749 }, "geometry": { "type": "Point", "coordinates": [ -67.243935385281901, -13.22166684364247 ] } },
{ "type": "Feature", "properties": { "confidence": 0.99925112724304199 }, "geometry": { "type": "Point", "coordinates": [ -67.241705759838169, -13.22166684364247 ] } },
{ "type": "Feature", "properties": { "confidence": 0.80080026388168335 }, "geometry": { "type": "Point", "coordinates": [ -67.239476134394423, -13.22166684364247 ] } },
{ "type": "Feature", "properties": { "confidence": 0.97352910041809082 }, "geometry": { "type": "Point", "coordinates": [ -67.237246508950705, -13.223851408057918 ] } },
{ "type": "Feature", "properties": { "confidence": 0.99988484382629395 }, "geometry": { "type": "Point", "coordinates": [ -67.237246508950705, -13.226035972473365 ] } },
{ "type": "Feature", "properties": { "confidence": 0.9998161792755127 }, "geometry": { "type": "Point", "coordinates": [ -67.23278725806324, -13.20419032831888 ] } },
{ "type": "Feature", "properties": { "confidence": 0.99362927675247192 }, "geometry": { "type": "Point", "coordinates": [ -67.228328007175762, -13.206374892734328 ] } },
{ "type": "Feature", "properties": { "confidence": 0.99954253435134888 }, "geometry": { "type": "Point", "coordinates": [ -67.226098381732029, -13.206374892734328 ] } },
{ "type": "Feature", "properties": { "confidence": 0.97644621133804321 }, "geometry": { "type": "Point", "coordinates": [ -67.223868756288311, -13.217297714811574 ] } },
{ "type": "Feature", "properties": { "confidence": 0.96195733547210693 }, "geometry": { "type": "Point", "coordinates": [ -67.219409505400861, -13.208559457149777 ] } },
{ "type": "Feature", "properties": { "confidence": 0.99714738130569458 }, "geometry": { "type": "Point", "coordinates": [ -67.219409505400861, -13.219482279227019 ] } },
{ "type": "Feature", "properties": { "confidence": 0.99937891960144043 }, "geometry": { "type": "Point", "coordinates": [ -67.217179879957115, -13.208559457149777 ] } },
{ "type": "Feature", "properties": { "confidence": 0.90784955024719238 }, "geometry": { "type": "Point", "coordinates": [ -67.217179879957115, -13.22166684364247 ] } },
{ "type": "Feature", "properties": { "confidence": 0.99970781803131104 }, "geometry": { "type": "Point", "coordinates": [ -67.214950254513383, -13.18016011974894 ] } },
{ "type": "Feature", "properties": { "confidence": 0.96595209836959839 }, "geometry": { "type": "Point", "coordinates": [ -67.212720629069651, -13.18016011974894 ] } },
{ "type": "Feature", "properties": { "confidence": 0.93288475275039673 }, "geometry": { "type": "Point", "coordinates": [ -67.212720629069651, -13.210744021565226 ] } },
{ "type": "Feature", "properties": { "confidence": 0.99320399761199951 }, "geometry": { "type": "Point", "coordinates": [ -67.212720629069651, -13.223851408057918 ] } },
{ "type": "Feature", "properties": { "confidence": 0.99837404489517212 }, "geometry": { "type": "Point", "coordinates": [ -67.210491003625918, -13.210744021565226 ] } },
{ "type": "Feature", "properties": { "confidence": 0.89417123794555664 }, "geometry": { "type": "Point", "coordinates": [ -67.210491003625918, -13.223851408057918 ] } },
{ "type": "Feature", "properties": { "confidence": 0.99978184700012207 }, "geometry": { "type": "Point", "coordinates": [ -67.208261378182172, -13.212928585980675 ] } },
{ "type": "Feature", "properties": { "confidence": 0.99703478813171387 }, "geometry": { "type": "Point", "coordinates": [ -67.206031752738454, -13.215113150396123 ] } },
{ "type": "Feature", "properties": { "confidence": 0.98904240131378174 }, "geometry": { "type": "Point", "coordinates": [ -67.206031752738454, -13.223851408057918 ] } },
{ "type": "Feature", "properties": { "confidence": 0.93979352712631226 }, "geometry": { "type": "Point", "coordinates": [ -67.203802127294722, -13.18016011974894 ] } },
{ "type": "Feature", "properties": { "confidence": 0.99600505828857422 }, "geometry": { "type": "Point", "coordinates": [ -67.203802127294722, -13.217297714811574 ] } },
{ "type": "Feature", "properties": { "confidence": 0.99689280986785889 }, "geometry": { "type": "Point", "coordinates": [ -67.203802127294722, -13.219482279227019 ] } },
{ "type": "Feature", "properties": { "confidence": 0.99942982196807861 }, "geometry": { "type": "Point", "coordinates": [ -67.186729618970261, -13.125538195726358 ] } },
{ "type": "Feature", "properties": { "confidence": 0.99615627527236938 }, "geometry": { "type": "Point", "coordinates": [ -67.18450013055056, -13.125538195726358 ] } },
{ "type": "Feature", "properties": { "confidence": 0.9996216893196106 }, "geometry": { "type": "Point", "coordinates": [ -67.173352688452113, -13.173606086779275 ] } },
{ "type": "Feature", "properties": { "confidence": 0.88931065797805786 }, "geometry": { "type": "Point", "coordinates": [ -67.142139850576413, -13.132092908142665 ] } },
{ "type": "Feature", "properties": { "confidence": 0.98591768741607666 }, "geometry": { "type": "Point", "coordinates": [ -67.138072890547562, -13.162299360208616 ] } },
{ "type": "Feature", "properties": { "confidence": 0.97029811143875122 }, "geometry": { "type": "Point", "coordinates": [ -67.135843006287701, -13.166669951275635 ] } },
{ "type": "Feature", "properties": { "confidence": 0.98608940839767456 }, "geometry": { "type": "Point", "coordinates": [ -67.135843006287701, -13.168855246809144 ] } },
{ "type": "Feature", "properties": { "confidence": 0.96586447954177856 }, "geometry": { "type": "Point", "coordinates": [ -67.120233816468698, -13.125149336138966 ] } },
{ "type": "Feature", "properties": { "confidence": 0.99941235780715942 }, "geometry": { "type": "Point", "coordinates": [ -67.120233816468698, -13.127334631672475 ] } },
{ "type": "Feature", "properties": { "confidence": 0.98828452825546265 }, "geometry": { "type": "Point", "coordinates": [ -67.120233816468698, -13.136075813806512 ] } },
{ "type": "Feature", "properties": { "confidence": 0.99989473819732666 }, "geometry": { "type": "Point", "coordinates": [ -67.116170673936665, -13.073092812435279 ] } },
{ "type": "Feature", "properties": { "confidence": 0.99952876567840576 }, "geometry": { "type": "Point", "coordinates": [ -67.113941326421127, -13.075278050659291 ] } },
{ "type": "Feature", "properties": { "confidence": 0.99748307466506958 }, "geometry": { "type": "Point", "coordinates": [ -67.098335893812319, -13.075278050659291 ] } },
{ "type": "Feature", "properties": { "confidence": 0.93528532981872559 }, "geometry": { "type": "Point", "coordinates": [ -67.191568707915849, -13.12154674767566 ] } },
{ "type": "Feature", "properties": { "confidence": 0.98732137680053711 }, "geometry": { "type": "Point", "coordinates": [ -67.187110800689027, -13.1149922016531 ] } },
{ "type": "Feature", "properties": { "confidence": 0.99551296234130859 }, "geometry": { "type": "Point", "coordinates": [ -67.18488184707563, -13.1149922016531 ] } },
{ "type": "Feature", "properties": { "confidence": 0.99987620115280151 }, "geometry": { "type": "Point", "coordinates": [ -67.180423939848808, -13.117177050327287 ] } },
{ "type": "Feature", "properties": { "confidence": 0.98991090059280396 }, "geometry": { "type": "Point", "coordinates": [ -67.116565587897, -13.066924866355546 ] } },
{ "type": "Feature", "properties": { "confidence": 0.99302709102630615 }, "geometry": { "type": "Point", "coordinates": [ -67.116565587897, -13.069110047262457 ] } },
{ "type": "Feature", "properties": { "confidence": 0.8760906457901001 }, "geometry": { "type": "Point", "coordinates": [ -67.114336775046283, -13.03196197184495 ] } },
{ "type": "Feature", "properties": { "confidence": 0.84096676111221313 }, "geometry": { "type": "Point", "coordinates": [ -67.114336775046283, -13.034147152751858 ] } },
{ "type": "Feature", "properties": { "confidence": 0.93508529663085938 }, "geometry": { "type": "Point", "coordinates": [ -67.114336775046283, -13.064739685448631 ] } },
{ "type": "Feature", "properties": { "confidence": 0.93765711784362793 }, "geometry": { "type": "Point", "coordinates": [ -67.114336775046283, -13.066924866355546 ] } },
{ "type": "Feature", "properties": { "confidence": 0.99638450145721436 }, "geometry": { "type": "Point", "coordinates": [ -67.112107962195566, -13.027591610031124 ] } },
{ "type": "Feature", "properties": { "confidence": 0.99849027395248413 }, "geometry": { "type": "Point", "coordinates": [ -67.112107962195566, -13.029776790938035 ] } },
{ "type": "Feature", "properties": { "confidence": 0.99986791610717773 }, "geometry": { "type": "Point", "coordinates": [ -67.112107962195566, -13.064739685448631 ] } },
{ "type": "Feature", "properties": { "confidence": 0.99427253007888794 }, "geometry": { "type": "Point", "coordinates": [ -67.109879149344863, -13.02540642912421 ] } },
{ "type": "Feature", "properties": { "confidence": 0.99927818775177002 }, "geometry": { "type": "Point", "coordinates": [ -67.107650336494146, -13.062554504541719 ] } },
{ "type": "Feature", "properties": { "confidence": 0.98905426263809204 }, "geometry": { "type": "Point", "coordinates": [ -67.105421523643429, -13.023221248217297 ] } },
{ "type": "Feature", "properties": { "confidence": 0.99768024682998657 }, "geometry": { "type": "Point", "coordinates": [ -67.105421523643429, -13.066924866355546 ] } },
{ "type": "Feature", "properties": { "confidence": 0.99741494655609131 }, "geometry": { "type": "Point", "coordinates": [ -67.105421523643429, -13.069110047262457 ] } },
{ "type": "Feature", "properties": { "confidence": 0.99927616119384766 }, "geometry": { "type": "Point", "coordinates": [ -67.10096389794198, -13.02540642912421 ] } },
{ "type": "Feature", "properties": { "confidence": 0.99999648332595825 }, "geometry": { "type": "Point", "coordinates": [ -67.098735085091292, -13.02540642912421 ] } },
{ "type": "Feature", "properties": { "confidence": 0.99998724460601807 }, "geometry": { "type": "Point", "coordinates": [ -67.096506272240589, -13.02540642912421 ] } },
{ "type": "Feature", "properties": { "confidence": 0.9996488094329834 }, "geometry": { "type": "Point", "coordinates": [ -67.094277459389872, -13.025406429124212 ] } },
{ "type": "Feature", "properties": { "confidence": 0.99988347291946411 }, "geometry": { "type": "Point", "coordinates": [ -67.086160871617096, -13.007923348868514 ] } },
{ "type": "Feature", "properties": { "confidence": 0.99711483716964722 }, "geometry": { "type": "Point", "coordinates": [ -67.086160871617096, -13.010108856375508 ] } },
{ "type": "Feature", "properties": { "confidence": 0.99777644872665405 }, "geometry": { "type": "Point", "coordinates": [ -67.086160871617096, -13.014479871389492 ] } },
{ "type": "Feature", "properties": { "confidence": 0.99599236249923706 }, "geometry": { "type": "Point", "coordinates": [ -67.083932203397808, -13.010108856375508 ] } },
{ "type": "Feature", "properties": { "confidence": 0.99683064222335815 }, "geometry": { "type": "Point", "coordinates": [ -67.083932203397822, -13.0122943638825 ] } },
{ "type": "Feature", "properties": { "confidence": 0.9925229549407959 }, "geometry": { "type": "Point", "coordinates": [ -67.112502231018993, -13.012681573234291 ] } },
{ "type": "Feature", "properties": { "confidence": 0.99660211801528931 }, "geometry": { "type": "Point", "coordinates": [ -67.112502231018993, -13.014866696816354 ] } },
{ "type": "Feature", "properties": { "confidence": 0.99976903200149536 }, "geometry": { "type": "Point", "coordinates": [ -67.112502231018993, -13.017051820398406 ] } },
{ "type": "Feature", "properties": { "confidence": 0.99942964315414429 }, "geometry": { "type": "Point", "coordinates": [ -67.110273950755996, -13.010496449652237 ] } },
{ "type": "Feature", "properties": { "confidence": 0.90212553739547729 }, "geometry": { "type": "Point", "coordinates": [ -67.105817390229973, -12.975534472339339 ] } },
{ "type": "Feature", "properties": { "confidence": 0.99877524375915527 }, "geometry": { "type": "Point", "coordinates": [ -67.101360829703964, -12.977719595921391 ] } },
{ "type": "Feature", "properties": { "confidence": 0.99389910697937012 }, "geometry": { "type": "Point", "coordinates": [ -67.101360829703978, -13.010496449652239 ] } },
{ "type": "Feature", "properties": { "confidence": 0.99346375465393066 }, "geometry": { "type": "Point", "coordinates": [ -67.099132549440966, -12.979904719503448 ] } },
{ "type": "Feature", "properties": { "confidence": 0.99630820751190186 }, "geometry": { "type": "Point", "coordinates": [ -67.099132549440966, -13.010496449652239 ] } },
{ "type": "Feature", "properties": { "confidence": 0.93586361408233643 }, "geometry": { "type": "Point", "coordinates": [ -67.096904269177955, -12.968979101593167 ] } },
{ "type": "Feature", "properties": { "confidence": 0.99963665008544922 }, "geometry": { "type": "Point", "coordinates": [ -67.096904269177955, -13.012681573234293 ] } },
{ "type": "Feature", "properties": { "confidence": 0.99983012676239014 }, "geometry": { "type": "Point", "coordinates": [ -67.094675988914943, -13.01486669681635 ] } },
{ "type": "Feature", "properties": { "confidence": 0.86635875701904297 }, "geometry": { "type": "Point", "coordinates": [ -67.092447708651946, -13.010496449652239 ] } },
{ "type": "Feature", "properties": { "confidence": 0.99985069036483765 }, "geometry": { "type": "Point", "coordinates": [ -67.09021942838892, -13.010496449652239 ] } },
{ "type": "Feature", "properties": { "confidence": 0.84624642133712769 }, "geometry": { "type": "Point", "coordinates": [ -67.10175603833693, -12.964993373597661 ] } },
{ "type": "Feature", "properties": { "confidence": 0.98749005794525146 }, "geometry": { "type": "Point", "coordinates": [ -67.099528288586839, -12.964993373597659 ] } },
{ "type": "Feature", "properties": { "confidence": 0.94186097383499146 }, "geometry": { "type": "Point", "coordinates": [ -67.095072789086657, -12.923477114860999 ] } },
{ "type": "Feature", "properties": { "confidence": 0.99403780698776245 }, "geometry": { "type": "Point", "coordinates": [ -67.050907889511763, -12.931826804695172 ] } },
{ "type": "Feature", "properties": { "confidence": 0.99768894910812378 }, "geometry": { "type": "Point", "coordinates": [ -67.04867975373611, -12.931826804695172 ] } },
{ "type": "Feature", "properties": { "confidence": 0.8122374415397644 }, "geometry": { "type": "Point", "coordinates": [ -67.046451617960457, -12.920899563033938 ] } },
{ "type": "Feature", "properties": { "confidence": 0.9917328953742981 }, "geometry": { "type": "Point", "coordinates": [ -67.041995346409152, -12.925270459698432 ] } },
{ "type": "Feature", "properties": { "confidence": 0.88197219371795654 }, "geometry": { "type": "Point", "coordinates": [ -66.950488179459967, -12.772668248693344 ] } },
{ "type": "Feature", "properties": { "confidence": 0.97708612680435181 }, "geometry": { "type": "Point", "coordinates": [ -66.927255639824153, -12.655029203663611 ] } },
{ "type": "Feature", "properties": { "confidence": 0.99982720613479614 }, "geometry": { "type": "Point", "coordinates": [ -66.923222913663395, -12.651073804931727 ] } },
{ "type": "Feature", "properties": { "confidence": 0.99859720468521118 }, "geometry": { "type": "Point", "coordinates": [ -66.920996818016903, -12.648887610271419 ] } },
{ "type": "Feature", "properties": { "confidence": 0.99918103218078613 }, "geometry": { "type": "Point", "coordinates": [ -66.918770722370439, -12.644515220950801 ] } },
{ "type": "Feature", "properties": { "confidence": 0.99618929624557495 }, "geometry": { "type": "Point", "coordinates": [ -66.916544626723962, -12.63795663696988 ] } },
{ "type": "Feature", "properties": { "confidence": 0.99953454732894897 }, "geometry": { "type": "Point", "coordinates": [ -66.916544626723962, -12.640142831630186 ] } },
{ "type": "Feature", "properties": { "confidence": 0.87718039751052856 }, "geometry": { "type": "Point", "coordinates": [ -66.869575486857926, -12.166883001409314 ] } },
{ "type": "Feature", "properties": { "confidence": 0.81386518478393555 }, "geometry": { "type": "Point", "coordinates": [ -67.454943789916157, -14.425214711598597 ] } },
{ "type": "Feature", "properties": { "confidence": 0.9761807918548584 }, "geometry": { "type": "Point", "coordinates": [ -67.542966470546958, -14.221330651932346 ] } },
{ "type": "Feature", "properties": { "confidence": 0.96925276517868042 }, "geometry": { "type": "Point", "coordinates": [ -67.542966470546958, -14.223513652342994 ] } },
{ "type": "Feature", "properties": { "confidence": 0.98167550563812256 }, "geometry": { "type": "Point", "coordinates": [ -67.540728385135751, -14.234428654396224 ] } },
{ "type": "Feature", "properties": { "confidence": 0.99896156787872314 }, "geometry": { "type": "Point", "coordinates": [ -67.536252214313322, -14.234428654396224 ] } },
{ "type": "Feature", "properties": { "confidence": 0.8654058575630188 }, "geometry": { "type": "Point", "coordinates": [ -67.516449392728802, -14.184548069411219 ] } },
{ "type": "Feature", "properties": { "confidence": 0.97888630628585815 }, "geometry": { "type": "Point", "coordinates": [ -67.514211872419736, -14.184548069411218 ] } },
{ "type": "Feature", "properties": { "confidence": 0.91768443584442139 }, "geometry": { "type": "Point", "coordinates": [ -67.509736831801618, -14.197645818182947 ] } },
{ "type": "Feature", "properties": { "confidence": 0.91837799549102783 }, "geometry": { "type": "Point", "coordinates": [ -67.507499311492552, -14.182365111282595 ] } },
{ "type": "Feature", "properties": { "confidence": 0.99979692697525024 }, "geometry": { "type": "Point", "coordinates": [ -67.503365210428356, -14.18421324764541 ] } },
{ "type": "Feature", "properties": { "confidence": 0.82200068235397339 }, "geometry": { "type": "Point", "coordinates": [ -67.503365210428356, -14.195130248856755 ] } },
{ "type": "Feature", "properties": { "confidence": 0.99766188859939575 }, "geometry": { "type": "Point", "coordinates": [ -67.503365210428356, -14.197313649099023 ] } },
{ "type": "Feature", "properties": { "confidence": 0.94992440938949585 }, "geometry": { "type": "Point", "coordinates": [ -67.50112724028719, -14.18639664788768 ] } },
{ "type": "Feature", "properties": { "confidence": 0.99525779485702515 }, "geometry": { "type": "Point", "coordinates": [ -67.50112724028719, -14.195130248856755 ] } },
{ "type": "Feature", "properties": { "confidence": 0.98775619268417358 }, "geometry": { "type": "Point", "coordinates": [ -67.498889270146009, -14.188580048129946 ] } },
{ "type": "Feature", "properties": { "confidence": 0.99959105253219604 }, "geometry": { "type": "Point", "coordinates": [ -67.498889270146009, -14.192946848614485 ] } },
{ "type": "Feature", "properties": { "confidence": 0.98199921846389771 }, "geometry": { "type": "Point", "coordinates": [ -67.5615261048099, -14.065463647142606 ] } },
{ "type": "Feature", "properties": { "confidence": 0.9739416241645813 }, "geometry": { "type": "Point", "coordinates": [ -67.557380306578636, -14.06950583074337 ] } },
{ "type": "Feature", "properties": { "confidence": 0.92636668682098389 }, "geometry": { "type": "Point", "coordinates": [ -67.55514391012801, -14.071688704277395 ] } },
{ "type": "Feature", "properties": { "confidence": 0.9936988353729248 }, "geometry": { "type": "Point", "coordinates": [ -67.552907513677397, -14.073871577811417 ] } },
{ "type": "Feature", "properties": { "confidence": 0.99963665008544922 }, "geometry": { "type": "Point", "coordinates": [ -67.550671117226756, -14.073871577811417 ] } },
{ "type": "Feature", "properties": { "confidence": 0.9979093074798584 }, "geometry": { "type": "Point", "coordinates": [ -67.550671117226756, -14.093517439617631 ] } },
{ "type": "Feature", "properties": { "confidence": 0.99645668268203735 }, "geometry": { "type": "Point", "coordinates": [ -67.550671117226756, -14.095700313151655 ] } },
{ "type": "Feature", "properties": { "confidence": 0.96318638324737549 }, "geometry": { "type": "Point", "coordinates": [ -67.548434720776143, -14.100066060219701 ] } },
{ "type": "Feature", "properties": { "confidence": 0.97406476736068726 }, "geometry": { "type": "Point", "coordinates": [ -67.54619832432553, -14.07605445134544 ] } },
{ "type": "Feature", "properties": { "confidence": 0.99202382564544678 }, "geometry": { "type": "Point", "coordinates": [ -67.54619832432553, -14.104431807287749 ] } },
{ "type": "Feature", "properties": { "confidence": 0.97651159763336182 }, "geometry": { "type": "Point", "coordinates": [ -67.543961927874875, -14.07605445134544 ] } },
{ "type": "Feature", "properties": { "confidence": 0.99284213781356812 }, "geometry": { "type": "Point", "coordinates": [ -67.541725531424277, -14.067322957209347 ] } },
{ "type": "Feature", "properties": { "confidence": 0.89351391792297363 }, "geometry": { "type": "Point", "coordinates": [ -67.588676795339865, -14.048316698361317 ] } },
{ "type": "Feature", "properties": { "confidence": 0.83876276016235352 }, "geometry": { "type": "Point", "coordinates": [ -67.586441403623652, -14.015580806977837 ] } },
{ "type": "Feature", "properties": { "confidence": 0.84860366582870483 }, "geometry": { "type": "Point", "coordinates": [ -67.586441403623652, -14.048316698361315 ] } },
{ "type": "Feature", "properties": { "confidence": 0.99111956357955933 }, "geometry": { "type": "Point", "coordinates": [ -67.566322878177857, -14.048316698361317 ] } },
{ "type": "Feature", "properties": { "confidence": 0.98995441198348999 }, "geometry": { "type": "Point", "coordinates": [ -67.566322878177857, -14.050499091120214 ] } },
{ "type": "Feature", "properties": { "confidence": 0.87913691997528076 }, "geometry": { "type": "Point", "coordinates": [ -67.566322878177857, -14.052681483879113 ] } },
{ "type": "Feature", "properties": { "confidence": 0.88397598266601562 }, "geometry": { "type": "Point", "coordinates": [ -67.566322878177857, -14.054863876638009 ] } },
{ "type": "Feature", "properties": { "confidence": 0.98851090669631958 }, "geometry": { "type": "Point", "coordinates": [ -67.564087486461645, -14.059228662155808 ] } },
{ "type": "Feature", "properties": { "confidence": 0.98030823469161987 }, "geometry": { "type": "Point", "coordinates": [ -67.564087486461645, -14.061411054914707 ] } },
{ "type": "Feature", "properties": { "confidence": 0.99679923057556152 }, "geometry": { "type": "Point", "coordinates": [ -67.51332490735615, -13.971925821298827 ] } },
{ "type": "Feature", "properties": { "confidence": 0.97809386253356934 }, "geometry": { "type": "Point", "coordinates": [ -67.508854345282671, -13.969743032400983 ] } },
{ "type": "Feature", "properties": { "confidence": 0.99443048238754272 }, "geometry": { "type": "Point", "coordinates": [ -67.504719212682716, -13.969412017135706 ] } },
{ "type": "Feature", "properties": { "confidence": 0.9763493537902832 }, "geometry": { "type": "Point", "coordinates": [ -67.502483489766831, -13.969412017135706 ] } },
{ "type": "Feature", "properties": { "confidence": 0.84330326318740845 }, "geometry": { "type": "Point", "coordinates": [ -67.502483489766831, -13.986877805553384 ] } },
{ "type": "Feature", "properties": { "confidence": 0.91099143028259277 }, "geometry": { "type": "Point", "coordinates": [ -67.500247766850933, -13.984694582001175 ] } },
{ "type": "Feature", "properties": { "confidence": 0.9973788857460022 }, "geometry": { "type": "Point", "coordinates": [ -67.498012043935063, -13.975961687792335 ] } },
{ "type": "Feature", "properties": { "confidence": 0.99917429685592651 }, "geometry": { "type": "Point", "coordinates": [ -67.498012043935063, -13.978144911344545 ] } },
{ "type": "Feature", "properties": { "confidence": 0.8654855489730835 }, "geometry": { "type": "Point", "coordinates": [ -67.498012043935063, -13.980328134896755 ] } },
{ "type": "Feature", "properties": { "confidence": 0.95765680074691772 }, "geometry": { "type": "Point", "coordinates": [ -67.480807208800258, -13.863101977827315 ] } },
{ "type": "Feature", "properties": { "confidence": 0.90693968534469604 }, "geometry": { "type": "Point", "coordinates": [ -67.492982955345596, -13.730923062762731 ] } },
{ "type": "Feature", "properties": { "confidence": 0.99028670787811279 }, "geometry": { "type": "Point", "coordinates": [ -67.492982955345596, -13.737472070158145 ] } },
{ "type": "Feature", "properties": { "confidence": 0.98859906196594238 }, "geometry": { "type": "Point", "coordinates": [ -67.488517032749456, -13.724374055367315 ] } },
{ "type": "Feature", "properties": { "confidence": 0.99225533008575439 }, "geometry": { "type": "Point", "coordinates": [ -67.479585187557149, -13.724374055367315 ] } },
{ "type": "Feature", "properties": { "confidence": 0.98501801490783691 }, "geometry": { "type": "Point", "coordinates": [ -67.477352226259114, -13.728740060297591 ] } },
{ "type": "Feature", "properties": { "confidence": 0.99984151124954224 }, "geometry": { "type": "Point", "coordinates": [ -67.477352226259114, -13.730923062762731 ] } },
{ "type": "Feature", "properties": { "confidence": 0.95356619358062744 }, "geometry": { "type": "Point", "coordinates": [ -66.287496039005021, -11.266284287539367 ] } },
{ "type": "Feature", "properties": { "confidence": 0.99128693342208862 }, "geometry": { "type": "Point", "coordinates": [ -66.237000218573627, -11.250477567349282 ] } },
{ "type": "Feature", "properties": { "confidence": 0.99682414531707764 }, "geometry": { "type": "Point", "coordinates": [ -66.232566002948914, -11.252666032450433 ] } },
{ "type": "Feature", "properties": { "confidence": 0.90743511915206909 }, "geometry": { "type": "Point", "coordinates": [ -66.232566002948914, -11.27673914856309 ] } },
{ "type": "Feature", "properties": { "confidence": 0.99718981981277466 }, "geometry": { "type": "Point", "coordinates": [ -66.230348895136558, -11.254854497551584 ] } },
{ "type": "Feature", "properties": { "confidence": 0.99874132871627808 }, "geometry": { "type": "Point", "coordinates": [ -66.228131787324202, -11.257042962652736 ] } },
{ "type": "Feature", "properties": { "confidence": 0.97792249917984009 }, "geometry": { "type": "Point", "coordinates": [ -66.085901626907287, -10.98664482556393 ] } },
{ "type": "Feature", "properties": { "confidence": 0.87598574161529541 }, "geometry": { "type": "Point", "coordinates": [ -66.081470643422989, -10.988833687697884 ] } },
{ "type": "Feature", "properties": { "confidence": 0.95731914043426514 }, "geometry": { "type": "Point", "coordinates": [ -66.057616598371126, -10.974018249770122 ] } },
{ "type": "Feature", "properties": { "confidence": 0.96457481384277344 }, "geometry": { "type": "Point", "coordinates": [ -66.055401597046867, -10.945564263668723 ] } },
{ "type": "Feature", "properties": { "confidence": 0.99965357780456543 }, "geometry": { "type": "Point", "coordinates": [ -66.500153714050299, -11.068716570150693 ] } },
{ "type": "Feature", "properties": { "confidence": 0.80709618330001831 }, "geometry": { "type": "Point", "coordinates": [ -66.678950418997232, -10.954955246567451 ] } },
{ "type": "Feature", "properties": { "confidence": 0.98778188228607178 }, "geometry": { "type": "Point", "coordinates": [ -66.926695300729662, -11.92230795916797 ] } },
{ "type": "Feature", "properties": { "confidence": 0.92893397808074951 }, "geometry": { "type": "Point", "coordinates": [ -66.798235843114, -11.68051538551244 ] } },
{ "type": "Feature", "properties": { "confidence": 0.88067799806594849 }, "geometry": { "type": "Point", "coordinates": [ -67.497159618928848, -11.496299169010223 ] } },
{ "type": "Feature", "properties": { "confidence": 0.83019125461578369 }, "geometry": { "type": "Point", "coordinates": [ -67.677552699072265, -8.843064210151772 ] } },
{ "type": "Feature", "properties": { "confidence": 0.95869934558868408 }, "geometry": { "type": "Point", "coordinates": [ -66.574243019054535, -7.679273359041681 ] } },
{ "type": "Feature", "properties": { "confidence": 0.86264282464981079 }, "geometry": { "type": "Point", "coordinates": [ -66.84828981512814, -7.661045610176515 ] } },
{ "type": "Feature", "properties": { "confidence": 0.87071025371551514 }, "geometry": { "type": "Point", "coordinates": [ -66.889492085094105, -5.049277565898155 ] } },
{ "type": "Feature", "properties": { "confidence": 0.85989820957183838 }, "geometry": { "type": "Point", "coordinates": [ -66.874298024018771, -5.007920327086122 ] } },
{ "type": "Feature", "properties": { "confidence": 0.98235517740249634 }, "geometry": { "type": "Point", "coordinates": [ -67.038454624568573, -5.110385557440273 ] } },
{ "type": "Feature", "properties": { "confidence": 0.97308260202407837 }, "geometry": { "type": "Point", "coordinates": [ -67.12295603807371, -5.119248479853467 ] } },
{ "type": "Feature", "properties": { "confidence": 0.97656989097595215 }, "geometry": { "type": "Point", "coordinates": [ -67.079543031086246, -5.108366436200928 ] } },
{ "type": "Feature", "properties": { "confidence": 0.94214296340942383 }, "geometry": { "type": "Point", "coordinates": [ -67.127447714500533, -5.08893261053495 ] } },
{ "type": "Feature", "properties": { "confidence": 0.91471558809280396 }, "geometry": { "type": "Point", "coordinates": [ -67.107914023636241, -5.064992794931993 ] } },
{ "type": "Feature", "properties": { "confidence": 0.91641849279403687 }, "geometry": { "type": "Point", "coordinates": [ -67.103573203444171, -5.060640101186 ] } },
{ "type": "Feature", "properties": { "confidence": 0.98432034254074097 }, "geometry": { "type": "Point", "coordinates": [ -67.290807616212362, -5.421462443472815 ] } },
{ "type": "Feature", "properties": { "confidence": 0.89072763919830322 }, "geometry": { "type": "Point", "coordinates": [ -67.290807616212362, -5.423638724802061 ] } },
{ "type": "Feature", "properties": { "confidence": 0.96992933750152588 }, "geometry": { "type": "Point", "coordinates": [ -67.258676147939639, -5.354144003023523 ] } },
{ "type": "Feature", "properties": { "confidence": 0.9928964376449585 }, "geometry": { "type": "Point", "coordinates": [ -67.256504875831894, -5.354144003023523 ] } },
{ "type": "Feature", "properties": { "confidence": 0.99700683355331421 }, "geometry": { "type": "Point", "coordinates": [ -67.254333603724163, -5.354144003023523 ] } },
{ "type": "Feature", "properties": { "confidence": 0.83167952299118042 }, "geometry": { "type": "Point", "coordinates": [ -67.416337190123002, -5.476010796674099 ] } },
{ "type": "Feature", "properties": { "confidence": 0.98248350620269775 }, "geometry": { "type": "Point", "coordinates": [ -67.431673759119562, -5.458739918924803 ] } },
{ "type": "Feature", "properties": { "confidence": 0.94613629579544067 }, "geometry": { "type": "Point", "coordinates": [ -67.172727095657208, -5.110695931656728 ] } },
{ "type": "Feature", "properties": { "confidence": 0.98258000612258911 }, "geometry": { "type": "Point", "coordinates": [ -67.168386015442636, -5.112872229326997 ] } },
{ "type": "Feature", "properties": { "confidence": 0.98174422979354858 }, "geometry": { "type": "Point", "coordinates": [ -67.166215475335335, -5.112872229326997 ] } },
{ "type": "Feature", "properties": { "confidence": 0.92760467529296875 }, "geometry": { "type": "Point", "coordinates": [ -67.164044935228063, -5.115048526997263 ] } },
{ "type": "Feature", "properties": { "confidence": 0.99579578638076782 }, "geometry": { "type": "Point", "coordinates": [ -67.161874395120776, -5.115048526997263 ] } },
{ "type": "Feature", "properties": { "confidence": 0.99310815334320068 }, "geometry": { "type": "Point", "coordinates": [ -67.140168994047926, -5.10851963398646 ] } },
{ "type": "Feature", "properties": { "confidence": 0.97865158319473267 }, "geometry": { "type": "Point", "coordinates": [ -67.13148683361878, -5.112872229326997 ] } },
{ "type": "Feature", "properties": { "confidence": 0.96786922216415405 }, "geometry": { "type": "Point", "coordinates": [ -67.164192815209418, -5.102140025019226 ] } },
{ "type": "Feature", "properties": { "confidence": 0.99238210916519165 }, "geometry": { "type": "Point", "coordinates": [ -67.157681910318004, -5.102140025019227 ] } },
{ "type": "Feature", "properties": { "confidence": 0.92462646961212158 }, "geometry": { "type": "Point", "coordinates": [ -67.155511608687533, -5.102140025019226 ] } },
{ "type": "Feature", "properties": { "confidence": 0.81044232845306396 }, "geometry": { "type": "Point", "coordinates": [ -67.844196713744793, -6.000116040740532 ] } },
{ "type": "Feature", "properties": { "confidence": 0.80207812786102295 }, "geometry": { "type": "Point", "coordinates": [ -67.842023833465063, -6.000116040740532 ] } },
{ "type": "Feature", "properties": { "confidence": 0.87355142831802368 }, "geometry": { "type": "Point", "coordinates": [ -67.842023833465063, -6.002291351208485 ] } },
{ "type": "Feature", "properties": { "confidence": 0.9948609471321106 }, "geometry": { "type": "Point", "coordinates": [ -68.136464221342919, -6.289474170398738 ] } },
{ "type": "Feature", "properties": { "confidence": 0.96052473783493042 }, "geometry": { "type": "Point", "coordinates": [ -68.099697853196588, -6.213367015792993 ] } },
{ "type": "Feature", "properties": { "confidence": 0.83674401044845581 }, "geometry": { "type": "Point", "coordinates": [ -68.05207616908713, -6.180747143053607 ] } },
{ "type": "Feature", "properties": { "confidence": 0.84530860185623169 }, "geometry": { "type": "Point", "coordinates": [ -67.567818143744049, -5.548080718491356 ] } },
{ "type": "Feature", "properties": { "confidence": 0.95828187465667725 }, "geometry": { "type": "Point", "coordinates": [ -67.567818143744049, -5.550256427542615 ] } },
{ "type": "Feature", "properties": { "confidence": 0.84421175718307495 }, "geometry": { "type": "Point", "coordinates": [ -67.835265534811441, -5.027680727442012 ] } },
{ "type": "Feature", "properties": { "confidence": 0.98858177661895752 }, "geometry": { "type": "Point", "coordinates": [ -68.345307628375878, -5.809972450443654 ] } }
]
}
