{
"type": "FeatureCollection",
"name": "v4.8_andes_mountains_negatives",
"crs": { "type": "name", "properties": { "name": "urn:ogc:def:crs:OGC:1.3:CRS84" } },
"features": [
{ "type": "Feature", "properties": { "confidence": 1.0 }, "geometry": { "type": "Point", "coordinates": [ -77.489051476809365, -9.097483423097895 ] } },
{ "type": "Feature", "properties": { "confidence": 0.99705976247787476 }, "geometry": { "type": "Point", "coordinates": [ -77.67753612617831, -8.605779173515558 ] } },
{ "type": "Feature", "properties": { "confidence": 0.80094313621520996 }, "geometry": { "type": "Point", "coordinates": [ -78.014600186383802, -7.829556293802565 ] } },
{ "type": "Feature", "properties": { "confidence": 0.92042660713195801 }, "geometry": { "type": "Point", "coordinates": [ -77.655237158197565, -8.519520650123638 ] } },
{ "type": "Feature", "properties": { "confidence": 0.65916741 }, "geometry": { "type": "Point", "coordinates": [ -76.503237543155478, -11.138232409448143 ] } },
{ "type": "Feature", "properties": { "confidence": 0.55763274 }, "geometry": { "type": "Point", "coordinates": [ -74.966782911618807, -13.145261752623831 ] } },
{ "type": "Feature", "properties": { "confidence": 0.96010518074035645 }, "geometry": { "type": "Point", "coordinates": [ -75.504317346860176, -11.701551171134813 ] } },
{ "type": "Feature", "properties": { "confidence": 0.92829751968383789 }, "geometry": { "type": "Point", "coordinates": [ -77.494535737817813, -9.251450276407509 ] } },
{ "type": "Feature", "properties": { "confidence": 0.99889832735061646 }, "geometry": { "type": "Point", "coordinates": [ -70.964744386456573, -13.780000029978186 ] } },
{ "type": "Feature", "properties": { "confidence": 0.99999779462814331 }, "geometry": { "type": "Point", "coordinates": [ -70.98220532136645, -13.764267112697707 ] } },
{ "type": "Feature", "properties": { "confidence": 0.92334699630737305 }, "geometry": { "type": "Point", "coordinates": [ -78.205806289853825, -7.815713707954535 ] } },
{ "type": "Feature", "properties": { "confidence": 0.97717094421386719 }, "geometry": { "type": "Point", "coordinates": [ -75.290919220080042, -11.908027432781964 ] } },
{ "type": "Feature", "properties": { "confidence": 0.85034638643264771 }, "geometry": { "type": "Point", "coordinates": [ -70.860872394862909, -13.804458900167123 ] } },
{ "type": "Feature", "properties": { "confidence": 1.0 }, "geometry": { "type": "Point", "coordinates": [ -73.858612000575008, -14.696097265273476 ] } },
{ "type": "Feature", "properties": { "confidence": 1.0 }, "geometry": { "type": "Point", "coordinates": [ -77.617952419803089, -9.107677070530128 ] } },
{ "type": "Feature", "properties": { "confidence": 0.50057048 }, "geometry": { "type": "Point", "coordinates": [ -75.132655761603729, -12.743732324046238 ] } },
{ "type": "Feature", "properties": { "confidence": 0.57034802 }, "geometry": { "type": "Point", "coordinates": [ -76.136697774771136, -11.795213090931773 ] } },
{ "type": "Feature", "properties": { "confidence": 0.99999511241912842 }, "geometry": { "type": "Point", "coordinates": [ -77.342792600449485, -9.382469172178979 ] } },
{ "type": "Feature", "properties": { "confidence": 0.51159865 }, "geometry": { "type": "Point", "coordinates": [ -74.951284174985503, -13.132237914334826 ] } },
{ "type": "Feature", "properties": { "confidence": 0.58826631 }, "geometry": { "type": "Point", "coordinates": [ -76.388713761990587, -11.082365167447893 ] } },
{ "type": "Feature", "properties": { "confidence": 0.98421633243560791 }, "geometry": { "type": "Point", "coordinates": [ -76.171936900816561, -11.261102054587456 ] } },
{ "type": "Feature", "properties": { "confidence": 1.0 }, "geometry": { "type": "Point", "coordinates": [ -71.233254624248858, -13.793077459311762 ] } },
{ "type": "Feature", "properties": { "confidence": 0.5559209 }, "geometry": { "type": "Point", "coordinates": [ -71.925874009457161, -14.691438111485478 ] } },
{ "type": "Feature", "properties": { "confidence": 0.99991488456726074 }, "geometry": { "type": "Point", "coordinates": [ -67.782544156452587, -16.643949147876313 ] } },
{ "type": "Feature", "properties": { "confidence": 0.96939581632614136 }, "geometry": { "type": "Point", "coordinates": [ -71.043954451193159, -13.74458553161422 ] } },
{ "type": "Feature", "properties": { "confidence": 0.93537425994873047 }, "geometry": { "type": "Point", "coordinates": [ -78.086060291004856, -7.509341134724055 ] } },
{ "type": "Feature", "properties": { "confidence": 0.99999868869781494 }, "geometry": { "type": "Point", "coordinates": [ -71.099893374716558, -13.754625840192189 ] } },
{ "type": "Feature", "properties": { "confidence": 0.99999624490737915 }, "geometry": { "type": "Point", "coordinates": [ -70.86045896701205, -13.793929484274248 ] } },
{ "type": "Feature", "properties": { "confidence": 0.97329050302505493 }, "geometry": { "type": "Point", "coordinates": [ -78.390466224684118, -7.157559594865899 ] } },
{ "type": "Feature", "properties": { "confidence": 0.95671623945236206 }, "geometry": { "type": "Point", "coordinates": [ -75.734220649454386, -12.033207475647041 ] } },
{ "type": "Feature", "properties": { "confidence": 0.93537932634353638 }, "geometry": { "type": "Point", "coordinates": [ -71.053356788556655, -13.752891400259628 ] } },
{ "type": "Feature", "properties": { "confidence": 0.95780038833618164 }, "geometry": { "type": "Point", "coordinates": [ -78.207296397801244, -7.247631810626904 ] } },
{ "type": "Feature", "properties": { "confidence": 0.99995827674865723 }, "geometry": { "type": "Point", "coordinates": [ -71.059614609917588, -13.735836935795909 ] } },
{ "type": "Feature", "properties": { "confidence": 1.0 }, "geometry": { "type": "Point", "coordinates": [ -67.773489553298901, -16.65267816085721 ] } },
{ "type": "Feature", "properties": { "confidence": 0.9734540581703186 }, "geometry": { "type": "Point", "coordinates": [ -70.877937196391215, -13.782599789508419 ] } },
{ "type": "Feature", "properties": { "confidence": 1.0 }, "geometry": { "type": "Point", "coordinates": [ -71.061851775449668, -13.735836935795909 ] } },
{ "type": "Feature", "properties": { "confidence": 0.99656027555465698 }, "geometry": { "type": "Point", "coordinates": [ -70.832613486963993, -13.939168954077187 ] } },
{ "type": "Feature", "properties": { "confidence": 0.9988512396812439 }, "geometry": { "type": "Point", "coordinates": [ -76.022728783967054, -11.97580410311596 ] } },
{ "type": "Feature", "properties": { "confidence": 0.84523594379425049 }, "geometry": { "type": "Point", "coordinates": [ -78.295930109152067, -7.313398153671356 ] } },
{ "type": "Feature", "properties": { "confidence": 0.52965945 }, "geometry": { "type": "Point", "coordinates": [ -76.41961662020131, -11.112600321219224 ] } },
{ "type": "Feature", "properties": { "confidence": 0.99970108270645142 }, "geometry": { "type": "Point", "coordinates": [ -71.226537746501236, -13.79307745931176 ] } },
{ "type": "Feature", "properties": { "confidence": 0.53512287 }, "geometry": { "type": "Point", "coordinates": [ -73.010957961699688, -14.545212273239025 ] } },
{ "type": "Feature", "properties": { "confidence": 0.93175327777862549 }, "geometry": { "type": "Point", "coordinates": [ -70.853750759917631, -13.798300622523 ] } },
{ "type": "Feature", "properties": { "confidence": 0.68344885 }, "geometry": { "type": "Point", "coordinates": [ -72.563827226538749, -14.512799308995156 ] } },
{ "type": "Feature", "properties": { "confidence": 0.80908334255218506 }, "geometry": { "type": "Point", "coordinates": [ -78.101369269339315, -7.509341134724055 ] } },
{ "type": "Feature", "properties": { "confidence": 0.83215004205703735 }, "geometry": { "type": "Point", "coordinates": [ -75.750216318094104, -11.41877583794256 ] } },
{ "type": "Feature", "properties": { "confidence": 0.99082791805267334 }, "geometry": { "type": "Point", "coordinates": [ -75.088683022929061, -13.433892494090779 ] } },
{ "type": "Feature", "properties": { "confidence": 0.95515233278274536 }, "geometry": { "type": "Point", "coordinates": [ -70.421541756375902, -13.900846761560651 ] } },
{ "type": "Feature", "properties": { "confidence": 0.60258776 }, "geometry": { "type": "Point", "coordinates": [ -74.96457092904032, -13.127899627089736 ] } },
{ "type": "Feature", "properties": { "confidence": 0.944527268409729 }, "geometry": { "type": "Point", "coordinates": [ -75.147786366027546, -12.138218526491151 ] } },
{ "type": "Feature", "properties": { "confidence": 0.6628266 }, "geometry": { "type": "Point", "coordinates": [ -76.232536559121542, -11.551774145041414 ] } },
{ "type": "Feature", "properties": { "confidence": 0.99999642372131348 }, "geometry": { "type": "Point", "coordinates": [ -70.814711395150937, -13.926054542766542 ] } },
{ "type": "Feature", "properties": { "confidence": 0.99649906158447266 }, "geometry": { "type": "Point", "coordinates": [ -70.834851248440629, -13.945726159732514 ] } },
{ "type": "Feature", "properties": { "confidence": 0.63787049 }, "geometry": { "type": "Point", "coordinates": [ -74.862707657702302, -13.1365463464097 ] } },
{ "type": "Feature", "properties": { "confidence": 0.86315691471099854 }, "geometry": { "type": "Point", "coordinates": [ -76.117543058983017, -10.228347172660548 ] } },
{ "type": "Feature", "properties": { "confidence": 0.99999970197677612 }, "geometry": { "type": "Point", "coordinates": [ -71.042168122162607, -13.748516976787419 ] } },
{ "type": "Feature", "properties": { "confidence": 0.99999988079071045 }, "geometry": { "type": "Point", "coordinates": [ -71.226537746501236, -13.788700613030612 ] } },
{ "type": "Feature", "properties": { "confidence": 0.95433986186981201 }, "geometry": { "type": "Point", "coordinates": [ -70.783794351282012, -13.926451995231941 ] } },
{ "type": "Feature", "properties": { "confidence": 0.54866391 }, "geometry": { "type": "Point", "coordinates": [ -74.663112714277702, -13.355550240478603 ] } },
{ "type": "Feature", "properties": { "confidence": 0.90715271234512329 }, "geometry": { "type": "Point", "coordinates": [ -78.005842093777474, -7.838290082685138 ] } },
{ "type": "Feature", "properties": { "confidence": 0.99999207258224487 }, "geometry": { "type": "Point", "coordinates": [ -71.075274768642032, -13.722714042068443 ] } },
{ "type": "Feature", "properties": { "confidence": 0.8117060661315918 }, "geometry": { "type": "Point", "coordinates": [ -75.550757066321978, -11.796932747662346 ] } },
{ "type": "Feature", "properties": { "confidence": 0.99736297130584717 }, "geometry": { "type": "Point", "coordinates": [ -70.830375725487357, -13.923868807548097 ] } },
{ "type": "Feature", "properties": { "confidence": 0.95101273059844971 }, "geometry": { "type": "Point", "coordinates": [ -77.897803113352239, -7.047555910133001 ] } },
{ "type": "Feature", "properties": { "confidence": 0.8263738751411438 }, "geometry": { "type": "Point", "coordinates": [ -75.589831382221135, -11.527683324248748 ] } },
{ "type": "Feature", "properties": { "confidence": 0.99999320507049561 }, "geometry": { "type": "Point", "coordinates": [ -70.814711395150937, -13.921683072329657 ] } },
{ "type": "Feature", "properties": { "confidence": 0.81293541193008423 }, "geometry": { "type": "Point", "coordinates": [ -70.777082348554075, -13.919896052879778 ] } },
{ "type": "Feature", "properties": { "confidence": 0.65849978 }, "geometry": { "type": "Point", "coordinates": [ -72.521906672265899, -14.479837112693364 ] } },
{ "type": "Feature", "properties": { "confidence": 0.88785278797149658 }, "geometry": { "type": "Point", "coordinates": [ -68.068635124195993, -16.591109871372218 ] } },
{ "type": "Feature", "properties": { "confidence": 0.64270186 }, "geometry": { "type": "Point", "coordinates": [ -74.844853793272421, -13.355726744610276 ] } },
{ "type": "Feature", "properties": { "confidence": 0.51807213 }, "geometry": { "type": "Point", "coordinates": [ -75.137039223500423, -12.672110368267129 ] } },
{ "type": "Feature", "properties": { "confidence": 0.99991852045059204 }, "geometry": { "type": "Point", "coordinates": [ -70.810642362193846, -13.915525424645008 ] } },
{ "type": "Feature", "properties": { "confidence": 0.99951183795928955 }, "geometry": { "type": "Point", "coordinates": [ -71.10436966282505, -13.759001075188118 ] } },
{ "type": "Feature", "properties": { "confidence": 0.99720865488052368 }, "geometry": { "type": "Point", "coordinates": [ -71.949932546099646, -14.326721905058363 ] } },
{ "type": "Feature", "properties": { "confidence": 0.99999916553497314 }, "geometry": { "type": "Point", "coordinates": [ -71.035454922326196, -13.752891400259628 ] } },
{ "type": "Feature", "properties": { "confidence": 0.69853669 }, "geometry": { "type": "Point", "coordinates": [ -76.028550603870187, -11.737031285804465 ] } },
{ "type": "Feature", "properties": { "confidence": 0.89492380619049072 }, "geometry": { "type": "Point", "coordinates": [ -75.50863453634004, -11.664681606325317 ] } },
{ "type": "Feature", "properties": { "confidence": 0.93934875726699829 }, "geometry": { "type": "Point", "coordinates": [ -75.550243615617731, -11.549537118494687 ] } },
{ "type": "Feature", "properties": { "confidence": 0.99391680955886841 }, "geometry": { "type": "Point", "coordinates": [ -67.823915393441439, -16.509896162200867 ] } },
{ "type": "Feature", "properties": { "confidence": 0.99282866716384888 }, "geometry": { "type": "Point", "coordinates": [ -76.917485935407399, -10.27233525288475 ] } },
{ "type": "Feature", "properties": { "confidence": 0.87894374132156372 }, "geometry": { "type": "Point", "coordinates": [ -78.503423725789872, -7.10637252491593 ] } },
{ "type": "Feature", "properties": { "confidence": 0.64044952 }, "geometry": { "type": "Point", "coordinates": [ -73.167601547643144, -14.720009852720054 ] } },
{ "type": "Feature", "properties": { "confidence": 0.99999362230300903 }, "geometry": { "type": "Point", "coordinates": [ -67.768962251722058, -16.65267816085721 ] } },
{ "type": "Feature", "properties": { "confidence": 0.90532618761062622 }, "geometry": { "type": "Point", "coordinates": [ -69.579299946520109, -14.552966098843942 ] } },
{ "type": "Feature", "properties": { "confidence": 0.99549758434295654 }, "geometry": { "type": "Point", "coordinates": [ -71.030979455768588, -13.750704188523521 ] } },
{ "type": "Feature", "properties": { "confidence": 0.92647987604141235 }, "geometry": { "type": "Point", "coordinates": [ -77.338395246109471, -9.38028577547799 ] } },
{ "type": "Feature", "properties": { "confidence": 0.96295076608657837 }, "geometry": { "type": "Point", "coordinates": [ -77.796861764782108, -7.583883476970579 ] } },
{ "type": "Feature", "properties": { "confidence": 0.94114208221435547 }, "geometry": { "type": "Point", "coordinates": [ -66.299463351360501, -17.774520863876781 ] } },
{ "type": "Feature", "properties": { "confidence": 0.91834527254104614 }, "geometry": { "type": "Point", "coordinates": [ -75.235910089424152, -11.988360873569446 ] } },
{ "type": "Feature", "properties": { "confidence": 0.85418236255645752 }, "geometry": { "type": "Point", "coordinates": [ -78.224675052236009, -7.605371257264018 ] } },
{ "type": "Feature", "properties": { "confidence": 0.99923533201217651 }, "geometry": { "type": "Point", "coordinates": [ -77.487941269968189, -9.251450276407509 ] } },
{ "type": "Feature", "properties": { "confidence": 0.99066448211669922 }, "geometry": { "type": "Point", "coordinates": [ -77.998536952525683, -7.842656977126424 ] } },
{ "type": "Feature", "properties": { "confidence": 0.99999576807022095 }, "geometry": { "type": "Point", "coordinates": [ -70.966981291837314, -13.777813635638495 ] } },
{ "type": "Feature", "properties": { "confidence": 0.99991637468338013 }, "geometry": { "type": "Point", "coordinates": [ -70.830375725487357, -13.932611748421866 ] } },
{ "type": "Feature", "properties": { "confidence": 0.99757343530654907 }, "geometry": { "type": "Point", "coordinates": [ -71.122274815259004, -13.759001075188122 ] } },
{ "type": "Feature", "properties": { "confidence": 0.90376341342926025 }, "geometry": { "type": "Point", "coordinates": [ -69.260814910859892, -14.670718780553839 ] } },
{ "type": "Feature", "properties": { "confidence": 0.80254280567169189 }, "geometry": { "type": "Point", "coordinates": [ -71.075274768642032, -13.718339744159284 ] } },
{ "type": "Feature", "properties": { "confidence": 0.99999910593032837 }, "geometry": { "type": "Point", "coordinates": [ -77.609162891718114, -9.107677070530128 ] } },
{ "type": "Feature", "properties": { "confidence": 0.63874608 }, "geometry": { "type": "Point", "coordinates": [ -75.132895152158753, -13.195144567303103 ] } },
{ "type": "Feature", "properties": { "confidence": 0.88116097450256348 }, "geometry": { "type": "Point", "coordinates": [ -78.64537206464324, -6.534255465313627 ] } },
{ "type": "Feature", "properties": { "confidence": 0.64299482 }, "geometry": { "type": "Point", "coordinates": [ -75.059762509269092, -13.028064182751773 ] } },
{ "type": "Feature", "properties": { "confidence": 0.53415281 }, "geometry": { "type": "Point", "coordinates": [ -72.330287961957239, -14.685857337694424 ] } },
{ "type": "Feature", "properties": { "confidence": 0.9999961256980896 }, "geometry": { "type": "Point", "coordinates": [ -71.033217189047392, -13.75507861199573 ] } },
{ "type": "Feature", "properties": { "confidence": 0.89725929498672485 }, "geometry": { "type": "Point", "coordinates": [ -75.567885129529259, -11.532140449296136 ] } },
{ "type": "Feature", "properties": { "confidence": 0.58327621 }, "geometry": { "type": "Point", "coordinates": [ -74.511319584908136, -12.780208051991959 ] } },
{ "type": "Feature", "properties": { "confidence": 0.6075123 }, "geometry": { "type": "Point", "coordinates": [ -72.691980530998009, -14.388325527905117 ] } },
{ "type": "Feature", "properties": { "confidence": 0.99999922513961792 }, "geometry": { "type": "Point", "coordinates": [ -70.801693025223258, -13.915525424645008 ] } },
{ "type": "Feature", "properties": { "confidence": 0.99987161159515381 }, "geometry": { "type": "Point", "coordinates": [ -77.512120985416786, -9.253634151498204 ] } },
{ "type": "Feature", "properties": { "confidence": 0.6440599 }, "geometry": { "type": "Point", "coordinates": [ -72.513939218194182, -14.193548653296316 ] } },
{ "type": "Feature", "properties": { "confidence": 0.995186448097229 }, "geometry": { "type": "Point", "coordinates": [ -70.884646661176063, -13.782599789508419 ] } },
{ "type": "Feature", "properties": { "confidence": 0.89103478193283081 }, "geometry": { "type": "Point", "coordinates": [ -71.046643588720201, -13.759453035467937 ] } },
{ "type": "Feature", "properties": { "confidence": 0.99654573202133179 }, "geometry": { "type": "Point", "coordinates": [ -71.108845950933528, -13.754625840192189 ] } },
{ "type": "Feature", "properties": { "confidence": 0.99993938207626343 }, "geometry": { "type": "Point", "coordinates": [ -71.037242954596977, -13.74458553161422 ] } },
{ "type": "Feature", "properties": { "confidence": 0.99828213453292847 }, "geometry": { "type": "Point", "coordinates": [ -76.046862818081394, -11.895406462824226 ] } },
{ "type": "Feature", "properties": { "confidence": 0.99999809265136719 }, "geometry": { "type": "Point", "coordinates": [ -71.23101566499966, -13.795265882452334 ] } },
{ "type": "Feature", "properties": { "confidence": 0.72964865 }, "geometry": { "type": "Point", "coordinates": [ -75.130680237054648, -13.19514570676869 ] } },
{ "type": "Feature", "properties": { "confidence": 0.99994838237762451 }, "geometry": { "type": "Point", "coordinates": [ -68.396893396606558, -15.926318910954215 ] } },
{ "type": "Feature", "properties": { "confidence": 0.69616765 }, "geometry": { "type": "Point", "coordinates": [ -72.719771083148132, -14.499187904930839 ] } },
{ "type": "Feature", "properties": { "confidence": 0.99969977140426636 }, "geometry": { "type": "Point", "coordinates": [ -75.695984852074659, -11.772775141403551 ] } },
{ "type": "Feature", "properties": { "confidence": 0.99991142749786377 }, "geometry": { "type": "Point", "coordinates": [ -77.315254396062898, -9.536448457996604 ] } },
{ "type": "Feature", "properties": { "confidence": 0.83031320571899414 }, "geometry": { "type": "Point", "coordinates": [ -77.520176018319233, -9.203404281997518 ] } },
{ "type": "Feature", "properties": { "confidence": 0.99440509080886841 }, "geometry": { "type": "Point", "coordinates": [ -77.50772467351706, -9.249266401316817 ] } },
{ "type": "Feature", "properties": { "confidence": 0.99999171495437622 }, "geometry": { "type": "Point", "coordinates": [ -76.049074551099551, -11.897584595067755 ] } },
{ "type": "Feature", "properties": { "confidence": 0.60518187 }, "geometry": { "type": "Point", "coordinates": [ -76.132132673543552, -11.756170284215536 ] } },
{ "type": "Feature", "properties": { "confidence": 0.91718101501464844 }, "geometry": { "type": "Point", "coordinates": [ -66.166621058471293, -17.622817593547389 ] } },
{ "type": "Feature", "properties": { "confidence": 0.99999934434890747 }, "geometry": { "type": "Point", "coordinates": [ -77.602570745654404, -9.107677070530128 ] } },
{ "type": "Feature", "properties": { "confidence": 0.99762135744094849 }, "geometry": { "type": "Point", "coordinates": [ -70.81430643446123, -13.900227494338413 ] } },
{ "type": "Feature", "properties": { "confidence": 0.99991136789321899 }, "geometry": { "type": "Point", "coordinates": [ -76.904263839459375, -10.270152835571871 ] } },
{ "type": "Feature", "properties": { "confidence": 0.99943941831588745 }, "geometry": { "type": "Point", "coordinates": [ -68.533836768869762, -15.82909270435192 ] } },
{ "type": "Feature", "properties": { "confidence": 0.57967454 }, "geometry": { "type": "Point", "coordinates": [ -72.223709933992268, -14.660761493809241 ] } },
{ "type": "Feature", "properties": { "confidence": 0.93425661325454712 }, "geometry": { "type": "Point", "coordinates": [ -70.988917282527581, -13.762080308681593 ] } },
{ "type": "Feature", "properties": { "confidence": 0.81814074516296387 }, "geometry": { "type": "Point", "coordinates": [ -67.418385572881249, -17.159689309258333 ] } },
{ "type": "Feature", "properties": { "confidence": 0.99979650974273682 }, "geometry": { "type": "Point", "coordinates": [ -70.828137964010722, -13.932611748421866 ] } },
{ "type": "Feature", "properties": { "confidence": 0.95571893453598022 }, "geometry": { "type": "Point", "coordinates": [ -66.516474782645076, -17.614747276203008 ] } },
{ "type": "Feature", "properties": { "confidence": 0.56513959 }, "geometry": { "type": "Point", "coordinates": [ -72.730058302596134, -14.362672099267147 ] } },
{ "type": "Feature", "properties": { "confidence": 0.64442295 }, "geometry": { "type": "Point", "coordinates": [ -74.860493269676439, -13.136545154991905 ] } },
{ "type": "Feature", "properties": { "confidence": 0.57509041 }, "geometry": { "type": "Point", "coordinates": [ -74.667533501893971, -13.364236714687722 ] } },
{ "type": "Feature", "properties": { "confidence": 0.80766302347183228 }, "geometry": { "type": "Point", "coordinates": [ -77.48354495806845, -9.249266401316817 ] } },
{ "type": "Feature", "properties": { "confidence": 0.91459721326828003 }, "geometry": { "type": "Point", "coordinates": [ -77.306805941640718, -9.538982166318684 ] } },
{ "type": "Feature", "properties": { "confidence": 0.99986851215362549 }, "geometry": { "type": "Point", "coordinates": [ -67.826176533532475, -16.507714543179524 ] } },
{ "type": "Feature", "properties": { "confidence": 0.86917752027511597 }, "geometry": { "type": "Point", "coordinates": [ -78.21052922550021, -7.770221965606733 ] } },
{ "type": "Feature", "properties": { "confidence": 0.58531934 }, "geometry": { "type": "Point", "coordinates": [ -75.342992555250959, -12.964907847765977 ] } },
{ "type": "Feature", "properties": { "confidence": 0.95284014940261841 }, "geometry": { "type": "Point", "coordinates": [ -77.300558241246634, -9.604138742147665 ] } },
{ "type": "Feature", "properties": { "confidence": 0.99999773502349854 }, "geometry": { "type": "Point", "coordinates": [ -71.035454922326196, -13.75507861199573 ] } },
{ "type": "Feature", "properties": { "confidence": 0.8280673623085022 }, "geometry": { "type": "Point", "coordinates": [ -66.35222026468891, -17.701275972028345 ] } },
{ "type": "Feature", "properties": { "confidence": 0.98729240894317627 }, "geometry": { "type": "Point", "coordinates": [ -70.886883149437665, -13.782599789508415 ] } },
{ "type": "Feature", "properties": { "confidence": 0.85883527994155884 }, "geometry": { "type": "Point", "coordinates": [ -66.514185104739596, -17.614747276203008 ] } },
{ "type": "Feature", "properties": { "confidence": 0.99986761808395386 }, "geometry": { "type": "Point", "coordinates": [ -77.347189954789485, -9.382469172178979 ] } },
{ "type": "Feature", "properties": { "confidence": 0.99999606609344482 }, "geometry": { "type": "Point", "coordinates": [ -77.344991277619485, -9.382469172178979 ] } },
{ "type": "Feature", "properties": { "confidence": 0.99995321035385132 }, "geometry": { "type": "Point", "coordinates": [ -77.51797804337987, -9.205588305571162 ] } },
{ "type": "Feature", "properties": { "confidence": 0.95681160688400269 }, "geometry": { "type": "Point", "coordinates": [ -78.194051460510636, -7.625012963189145 ] } },
{ "type": "Feature", "properties": { "confidence": 0.99941366910934448 }, "geometry": { "type": "Point", "coordinates": [ -70.966981291837314, -13.786559212997256 ] } },
{ "type": "Feature", "properties": { "confidence": 0.99994450807571411 }, "geometry": { "type": "Point", "coordinates": [ -71.132994258087606, -13.75197356183412 ] } },
{ "type": "Feature", "properties": { "confidence": 0.84968358278274536 }, "geometry": { "type": "Point", "coordinates": [ -71.134761937228944, -13.743687415377329 ] } },
{ "type": "Feature", "properties": { "confidence": 0.66626638 }, "geometry": { "type": "Point", "coordinates": [ -76.086285762658719, -11.858342379831942 ] } },
{ "type": "Feature", "properties": { "confidence": 0.85301715135574341 }, "geometry": { "type": "Point", "coordinates": [ -67.784807807241009, -16.63522013489542 ] } },
{ "type": "Feature", "properties": { "confidence": 0.93727743625640869 }, "geometry": { "type": "Point", "coordinates": [ -74.120468793243347, -13.236999397374341 ] } },
{ "type": "Feature", "properties": { "confidence": 0.99360531568527222 }, "geometry": { "type": "Point", "coordinates": [ -67.773489553298901, -16.654860414102433 ] } },
{ "type": "Feature", "properties": { "confidence": 0.9754064679145813 }, "geometry": { "type": "Point", "coordinates": [ -73.860852403535532, -14.693916690693367 ] } },
{ "type": "Feature", "properties": { "confidence": 0.83558207750320435 }, "geometry": { "type": "Point", "coordinates": [ -71.159379728997621, -13.728371731616377 ] } },
{ "type": "Feature", "properties": { "confidence": 0.99996817111968994 }, "geometry": { "type": "Point", "coordinates": [ -71.22429878725201, -13.79307745931176 ] } },
{ "type": "Feature", "properties": { "confidence": 0.52774125 }, "geometry": { "type": "Point", "coordinates": [ -74.511315412541109, -12.782378260806444 ] } },
{ "type": "Feature", "properties": { "confidence": 0.99993997812271118 }, "geometry": { "type": "Point", "coordinates": [ -70.827729605750363, -13.887113415179428 ] } },
{ "type": "Feature", "properties": { "confidence": 0.57788581 }, "geometry": { "type": "Point", "coordinates": [ -76.151531139543337, -11.654100172559467 ] } },
{ "type": "Feature", "properties": { "confidence": 0.88887977600097656 }, "geometry": { "type": "Point", "coordinates": [ -77.494535737817813, -9.253634151498204 ] } },
{ "type": "Feature", "properties": { "confidence": 0.80294162 }, "geometry": { "type": "Point", "coordinates": [ -72.721574808881641, -14.540406441710095 ] } },
{ "type": "Feature", "properties": { "confidence": 1.0 }, "geometry": { "type": "Point", "coordinates": [ -77.617952419803089, -9.105492987458893 ] } },
{ "type": "Feature", "properties": { "confidence": 0.99999547004699707 }, "geometry": { "type": "Point", "coordinates": [ -70.810642362193832, -13.906784168175459 ] } },
{ "type": "Feature", "properties": { "confidence": 0.99998015165328979 }, "geometry": { "type": "Point", "coordinates": [ -69.579299946520109, -14.570367843371129 ] } },
{ "type": "Feature", "properties": { "confidence": 0.99999409914016724 }, "geometry": { "type": "Point", "coordinates": [ -70.814711395150937, -13.932611748421866 ] } },
{ "type": "Feature", "properties": { "confidence": 0.98692291975021362 }, "geometry": { "type": "Point", "coordinates": [ -77.178928825018332, -9.422766594739423 ] } },
{ "type": "Feature", "properties": { "confidence": 0.98800253868103027 }, "geometry": { "type": "Point", "coordinates": [ -70.837089009917264, -13.943540424514072 ] } },
{ "type": "Feature", "properties": { "confidence": 0.99952638149261475 }, "geometry": { "type": "Point", "coordinates": [ -70.837089009917264, -13.930426013203425 ] } },
{ "type": "Feature", "properties": { "confidence": 0.99994724988937378 }, "geometry": { "type": "Point", "coordinates": [ -68.475288165966319, -15.900495889279943 ] } },
{ "type": "Feature", "properties": { "confidence": 0.92305088043212891 }, "geometry": { "type": "Point", "coordinates": [ -70.788269019767327, -13.922081366997169 ] } },
{ "type": "Feature", "properties": { "confidence": 0.9992561936378479 }, "geometry": { "type": "Point", "coordinates": [ -70.866754755083136, -13.791343720342578 ] } },
{ "type": "Feature", "properties": { "confidence": 0.99999845027923584 }, "geometry": { "type": "Point", "coordinates": [ -77.667351093030049, -8.966083917880146 ] } },
{ "type": "Feature", "properties": { "confidence": 0.99988472461700439 }, "geometry": { "type": "Point", "coordinates": [ -70.823662441057493, -13.91512586667433 ] } },
{ "type": "Feature", "properties": { "confidence": 0.99823802709579468 }, "geometry": { "type": "Point", "coordinates": [ -70.808000093779185, -13.900618372583832 ] } },
{ "type": "Feature", "properties": { "confidence": 0.99812602996826172 }, "geometry": { "type": "Point", "coordinates": [ -69.205084164691129, -14.670767003635403 ] } },
{ "type": "Feature", "properties": { "confidence": 0.52696568 }, "geometry": { "type": "Point", "coordinates": [ -72.990743704100638, -14.564558907455611 ] } },
{ "type": "Feature", "properties": { "confidence": 0.99999988079071045 }, "geometry": { "type": "Point", "coordinates": [ -67.759907648568387, -16.65267816085721 ] } },
{ "type": "Feature", "properties": { "confidence": 0.99368369579315186 }, "geometry": { "type": "Point", "coordinates": [ -71.10213151877079, -13.763376310184052 ] } },
{ "type": "Feature", "properties": { "confidence": 0.88696247339248657 }, "geometry": { "type": "Point", "coordinates": [ -66.68021924514251, -17.007787862732243 ] } },
{ "type": "Feature", "properties": { "confidence": 0.94705957174301147 }, "geometry": { "type": "Point", "coordinates": [ -69.200622529454193, -14.672938744833424 ] } },
{ "type": "Feature", "properties": { "confidence": 0.9932970404624939 }, "geometry": { "type": "Point", "coordinates": [ -77.501130205667437, -9.251450276407509 ] } },
{ "type": "Feature", "properties": { "confidence": 0.56331611 }, "geometry": { "type": "Point", "coordinates": [ -72.526019838720615, -14.510235363022998 ] } },
{ "type": "Feature", "properties": { "confidence": 0.99991744756698608 }, "geometry": { "type": "Point", "coordinates": [ -70.830375725487357, -13.928240277984981 ] } },
{ "type": "Feature", "properties": { "confidence": 0.87419986724853516 }, "geometry": { "type": "Point", "coordinates": [ -72.495395398401783, -13.46687317332832 ] } },
{ "type": "Feature", "properties": { "confidence": 0.87951403856277466 }, "geometry": { "type": "Point", "coordinates": [ -75.484462578666097, -11.705899633632603 ] } },
{ "type": "Feature", "properties": { "confidence": 0.99916589260101318 }, "geometry": { "type": "Point", "coordinates": [ -71.099893374716544, -13.750250605196257 ] } },
{ "type": "Feature", "properties": { "confidence": 0.69641823 }, "geometry": { "type": "Point", "coordinates": [ -72.815124181073458, -14.760324157877267 ] } },
{ "type": "Feature", "properties": { "confidence": 0.85570520162582397 }, "geometry": { "type": "Point", "coordinates": [ -76.103135458460613, -11.083670350749598 ] } },
{ "type": "Feature", "properties": { "confidence": 0.99970686435699463 }, "geometry": { "type": "Point", "coordinates": [ -71.030979455768588, -13.757265823731835 ] } },
{ "type": "Feature", "properties": { "confidence": 0.85009324550628662 }, "geometry": { "type": "Point", "coordinates": [ -78.095496821629411, -7.396539247200215 ] } },
{ "type": "Feature", "properties": { "confidence": 0.53985882 }, "geometry": { "type": "Point", "coordinates": [ -76.41527479251377, -11.123470409443602 ] } },
{ "type": "Feature", "properties": { "confidence": 0.97957885265350342 }, "geometry": { "type": "Point", "coordinates": [ -67.361517843009125, -16.957631103843003 ] } },
{ "type": "Feature", "properties": { "confidence": 0.83316051959991455 }, "geometry": { "type": "Point", "coordinates": [ -78.414482908078767, -7.118889094866537 ] } },
{ "type": "Feature", "properties": { "confidence": 0.82286316156387329 }, "geometry": { "type": "Point", "coordinates": [ -75.238116744008835, -11.988360873569446 ] } },
{ "type": "Feature", "properties": { "confidence": 0.81124621629714966 }, "geometry": { "type": "Point", "coordinates": [ -78.246306138862124, -7.256676814013312 ] } },
{ "type": "Feature", "properties": { "confidence": 0.99590891599655151 }, "geometry": { "type": "Point", "coordinates": [ -70.871227731606382, -13.782599789508415 ] } },
{ "type": "Feature", "properties": { "confidence": 0.85291671752929688 }, "geometry": { "type": "Point", "coordinates": [ -77.104567080519715, -9.021543225263857 ] } },
{ "type": "Feature", "properties": { "confidence": 0.90850818157196045 }, "geometry": { "type": "Point", "coordinates": [ -78.995164320438846, -6.366549514277731 ] } },
{ "type": "Feature", "properties": { "confidence": 0.99999749660491943 }, "geometry": { "type": "Point", "coordinates": [ -71.099893374716558, -13.75243822269422 ] } },
{ "type": "Feature", "properties": { "confidence": 0.99612319469451904 }, "geometry": { "type": "Point", "coordinates": [ -70.78155701703939, -13.926451995231941 ] } },
{ "type": "Feature", "properties": { "confidence": 0.80785459280014038 }, "geometry": { "type": "Point", "coordinates": [ -68.133920503729811, -16.569558584309473 ] } },
{ "type": "Feature", "properties": { "confidence": 0.99798697233200073 }, "geometry": { "type": "Point", "coordinates": [ -71.233254624248858, -13.786512189890036 ] } },
{ "type": "Feature", "properties": { "confidence": 0.99135059118270874 }, "geometry": { "type": "Point", "coordinates": [ -71.046643588720201, -13.757265823731835 ] } },
{ "type": "Feature", "properties": { "confidence": 0.96636295318603516 }, "geometry": { "type": "Point", "coordinates": [ -71.128989247421742, -13.754625840192189 ] } },
{ "type": "Feature", "properties": { "confidence": 0.91640341281890869 }, "geometry": { "type": "Point", "coordinates": [ -78.676838492533463, -6.747107513350868 ] } },
{ "type": "Feature", "properties": { "confidence": 0.9497944712638855 }, "geometry": { "type": "Point", "coordinates": [ -75.451549259651514, -11.758075083037932 ] } },
{ "type": "Feature", "properties": { "confidence": 0.99998533725738525 }, "geometry": { "type": "Point", "coordinates": [ -70.979968000979412, -13.766453916713818 ] } },
{ "type": "Feature", "properties": { "confidence": 0.69665879 }, "geometry": { "type": "Point", "coordinates": [ -76.507120494653194, -11.038399898202629 ] } },
{ "type": "Feature", "properties": { "confidence": 0.84847623109817505 }, "geometry": { "type": "Point", "coordinates": [ -79.560919027691085, -5.728288473904495 ] } },
{ "type": "Feature", "properties": { "confidence": 0.86062407493591309 }, "geometry": { "type": "Point", "coordinates": [ -78.120785016396141, -7.901972030458625 ] } },
{ "type": "Feature", "properties": { "confidence": 0.51839709 }, "geometry": { "type": "Point", "coordinates": [ -72.563803497863404, -14.514967322098332 ] } },
{ "type": "Feature", "properties": { "confidence": 0.9986875057220459 }, "geometry": { "type": "Point", "coordinates": [ -70.825492410535503, -13.880556375599935 ] } },
{ "type": "Feature", "properties": { "confidence": 0.98575019836425781 }, "geometry": { "type": "Point", "coordinates": [ -77.503328361617292, -9.255818026588898 ] } },
{ "type": "Feature", "properties": { "confidence": 0.99999755620956421 }, "geometry": { "type": "Point", "coordinates": [ -70.98220532136645, -13.753333092617138 ] } },
{ "type": "Feature", "properties": { "confidence": 0.52145487 }, "geometry": { "type": "Point", "coordinates": [ -72.687888429328908, -14.35359029667328 ] } },
{ "type": "Feature", "properties": { "confidence": 0.95652490854263306 }, "geometry": { "type": "Point", "coordinates": [ -75.574500697246066, -11.529965865646314 ] } },
{ "type": "Feature", "properties": { "confidence": 0.92501354217529297 }, "geometry": { "type": "Point", "coordinates": [ -76.044172363541605, -9.890205885877142 ] } },
{ "type": "Feature", "properties": { "confidence": 0.95808643102645874 }, "geometry": { "type": "Point", "coordinates": [ -78.679018760628239, -6.747107513350868 ] } },
{ "type": "Feature", "properties": { "confidence": 0.55619675 }, "geometry": { "type": "Point", "coordinates": [ -72.454841868779297, -14.700265659576766 ] } },
{ "type": "Feature", "properties": { "confidence": 0.92365574836730957 }, "geometry": { "type": "Point", "coordinates": [ -79.528333586938714, -5.765016449877478 ] } },
{ "type": "Feature", "properties": { "confidence": 0.99550533294677734 }, "geometry": { "type": "Point", "coordinates": [ -70.966981291837314, -13.788745607336947 ] } },
{ "type": "Feature", "properties": { "confidence": 0.91001546382904053 }, "geometry": { "type": "Point", "coordinates": [ -71.099893374716558, -13.767751545179985 ] } },
{ "type": "Feature", "properties": { "confidence": 0.87797129154205322 }, "geometry": { "type": "Point", "coordinates": [ -78.59100141094271, -7.013434162759212 ] } },
{ "type": "Feature", "properties": { "confidence": 0.99349415302276611 }, "geometry": { "type": "Point", "coordinates": [ -71.136999918298841, -13.741499460554337 ] } },
{ "type": "Feature", "properties": { "confidence": 0.82608824968338013 }, "geometry": { "type": "Point", "coordinates": [ -68.86118772389473, -15.592985310646512 ] } },
{ "type": "Feature", "properties": { "confidence": 0.99959564208984375 }, "geometry": { "type": "Point", "coordinates": [ -70.969218197218041, -13.782186424317878 ] } },
{ "type": "Feature", "properties": { "confidence": 0.86504858732223511 }, "geometry": { "type": "Point", "coordinates": [ -71.075274768642032, -13.71396544625013 ] } },
{ "type": "Feature", "properties": { "confidence": 0.6785593 }, "geometry": { "type": "Point", "coordinates": [ -72.239158202759612, -14.67178430664489 ] } },
{ "type": "Feature", "properties": { "confidence": 0.99997162818908691 }, "geometry": { "type": "Point", "coordinates": [ -70.810642362193832, -13.917710738762393 ] } },
{ "type": "Feature", "properties": { "confidence": 0.91863334178924561 }, "geometry": { "type": "Point", "coordinates": [ -78.096995275529451, -7.52461896800481 ] } },
{ "type": "Feature", "properties": { "confidence": 0.87770497798919678 }, "geometry": { "type": "Point", "coordinates": [ -78.338055019219794, -7.233300254313738 ] } },
{ "type": "Feature", "properties": { "confidence": 0.95731502771377563 }, "geometry": { "type": "Point", "coordinates": [ -69.104874176424829, -14.887823074262492 ] } },
{ "type": "Feature", "properties": { "confidence": 0.82004249095916748 }, "geometry": { "type": "Point", "coordinates": [ -78.286555516397925, -7.09836257983654 ] } },
{ "type": "Feature", "properties": { "confidence": 0.99391216039657593 }, "geometry": { "type": "Point", "coordinates": [ -71.217581909504403, -13.784323766749461 ] } },
{ "type": "Feature", "properties": { "confidence": 0.99415439367294312 }, "geometry": { "type": "Point", "coordinates": [ -70.851514690886134, -13.793929484274248 ] } },
{ "type": "Feature", "properties": { "confidence": 0.99018323421478271 }, "geometry": { "type": "Point", "coordinates": [ -77.486109241416273, -9.27510869609368 ] } },
{ "type": "Feature", "properties": { "confidence": 0.94197577238082886 }, "geometry": { "type": "Point", "coordinates": [ -78.265969059960725, -7.243587088196383 ] } },
{ "type": "Feature", "properties": { "confidence": 1.0 }, "geometry": { "type": "Point", "coordinates": [ -67.780280505664166, -16.65049590761198 ] } },
{ "type": "Feature", "properties": { "confidence": 0.63555044 }, "geometry": { "type": "Point", "coordinates": [ -75.139287350694303, -12.741558627499648 ] } },
{ "type": "Feature", "properties": { "confidence": 0.83187514543533325 }, "geometry": { "type": "Point", "coordinates": [ -78.385801930674177, -7.216152208216752 ] } },
{ "type": "Feature", "properties": { "confidence": 0.91810959577560425 }, "geometry": { "type": "Point", "coordinates": [ -76.249206612843992, -10.829197395056553 ] } },
{ "type": "Feature", "properties": { "confidence": 0.8783414363861084 }, "geometry": { "type": "Point", "coordinates": [ -69.57483332498461, -14.552966098843942 ] } },
{ "type": "Feature", "properties": { "confidence": 0.8865591287612915 }, "geometry": { "type": "Point", "coordinates": [ -67.791598759606273, -16.630855628404966 ] } },
{ "type": "Feature", "properties": { "confidence": 1.0 }, "geometry": { "type": "Point", "coordinates": [ -78.543265054670229, -7.00444166974359 ] } },
{ "type": "Feature", "properties": { "confidence": 0.81551468372344971 }, "geometry": { "type": "Point", "coordinates": [ -77.935050970329584, -7.762609611855581 ] } },
{ "type": "Feature", "properties": { "confidence": 0.94767612218856812 }, "geometry": { "type": "Point", "coordinates": [ -77.98977885991934, -7.812088716037416 ] } },
{ "type": "Feature", "properties": { "confidence": 0.99985218048095703 }, "geometry": { "type": "Point", "coordinates": [ -71.201735311410914, -13.524099428374431 ] } },
{ "type": "Feature", "properties": { "confidence": 0.99947410821914673 }, "geometry": { "type": "Point", "coordinates": [ -77.51431914136667, -9.253634151498204 ] } },
{ "type": "Feature", "properties": { "confidence": 0.71663022 }, "geometry": { "type": "Point", "coordinates": [ -72.73003643070804, -14.364840399924264 ] } },
{ "type": "Feature", "properties": { "confidence": 0.99999123811721802 }, "geometry": { "type": "Point", "coordinates": [ -77.479148646168682, -9.247082526226126 ] } },
{ "type": "Feature", "properties": { "confidence": 0.87922912836074829 }, "geometry": { "type": "Point", "coordinates": [ -69.18728198539776, -14.714158627342874 ] } },
{ "type": "Feature", "properties": { "confidence": 0.98618507385253906 }, "geometry": { "type": "Point", "coordinates": [ -69.216188186576375, -14.681580013330706 ] } },
{ "type": "Feature", "properties": { "confidence": 0.80718356370925903 }, "geometry": { "type": "Point", "coordinates": [ -78.338055019219809, -7.213667847083864 ] } },
{ "type": "Feature", "properties": { "confidence": 0.99996364116668701 }, "geometry": { "type": "Point", "coordinates": [ -72.755476524186875, -13.365307221504075 ] } },
{ "type": "Feature", "properties": { "confidence": 0.608046 }, "geometry": { "type": "Point", "coordinates": [ -72.818227703082755, -14.445908359581763 ] } },
{ "type": "Feature", "properties": { "confidence": 0.89234554767608643 }, "geometry": { "type": "Point", "coordinates": [ -78.349415329137898, -6.678211565994271 ] } },
{ "type": "Feature", "properties": { "confidence": 0.99725770950317383 }, "geometry": { "type": "Point", "coordinates": [ -71.159379728997621, -13.717431957501411 ] } },
{ "type": "Feature", "properties": { "confidence": 0.66984886 }, "geometry": { "type": "Point", "coordinates": [ -72.696028470590804, -14.427397258992906 ] } },
{ "type": "Feature", "properties": { "confidence": 0.87753760814666748 }, "geometry": { "type": "Point", "coordinates": [ -78.229049851053929, -7.62064813965023 ] } },
{ "type": "Feature", "properties": { "confidence": 0.58042938 }, "geometry": { "type": "Point", "coordinates": [ -74.822745400710176, -13.279755620942074 ] } },
{ "type": "Feature", "properties": { "confidence": 0.95895707607269287 }, "geometry": { "type": "Point", "coordinates": [ -79.446191569937554, -5.628060698359883 ] } },
{ "type": "Feature", "properties": { "confidence": 0.84041768312454224 }, "geometry": { "type": "Point", "coordinates": [ -76.018304400302426, -11.971447782405324 ] } },
{ "type": "Feature", "properties": { "confidence": 0.98620206117630005 }, "geometry": { "type": "Point", "coordinates": [ -71.059614609917588, -13.740211233705065 ] } },
{ "type": "Feature", "properties": { "confidence": 0.99988996982574463 }, "geometry": { "type": "Point", "coordinates": [ -70.862695036043519, -13.798300622522996 ] } },
{ "type": "Feature", "properties": { "confidence": 0.82011717557907104 }, "geometry": { "type": "Point", "coordinates": [ -69.58599987882333, -14.570367843371129 ] } },
{ "type": "Feature", "properties": { "confidence": 0.81298840045928955 }, "geometry": { "type": "Point", "coordinates": [ -66.280432992664686, -17.567948559606894 ] } },
{ "type": "Feature", "properties": { "confidence": 0.54376048 }, "geometry": { "type": "Point", "coordinates": [ -72.290816578429656, -14.453440554813284 ] } },
{ "type": "Feature", "properties": { "confidence": 1.0 }, "geometry": { "type": "Point", "coordinates": [ -77.594496810954624, -8.853630328921021 ] } },
{ "type": "Feature", "properties": { "confidence": 0.9730379581451416 }, "geometry": { "type": "Point", "coordinates": [ -76.904263839459375, -10.263605583633234 ] } },
{ "type": "Feature", "properties": { "confidence": 0.86219918727874756 }, "geometry": { "type": "Point", "coordinates": [ -74.147685016609174, -13.111247629084307 ] } },
{ "type": "Feature", "properties": { "confidence": 0.9984167218208313 }, "geometry": { "type": "Point", "coordinates": [ -70.846454644263716, -13.967180562696781 ] } },
{ "type": "Feature", "properties": { "confidence": 0.66766697 }, "geometry": { "type": "Point", "coordinates": [ -76.232527078794774, -11.549604169197664 ] } },
{ "type": "Feature", "properties": { "confidence": 0.87732046842575073 }, "geometry": { "type": "Point", "coordinates": [ -69.234038876289787, -14.659857547776976 ] } },
{ "type": "Feature", "properties": { "confidence": 1.0 }, "geometry": { "type": "Point", "coordinates": [ -70.979968000979412, -13.759893504665477 ] } },
{ "type": "Feature", "properties": { "confidence": 0.99660593271255493 }, "geometry": { "type": "Point", "coordinates": [ -77.347189954789471, -9.38028577547799 ] } },
{ "type": "Feature", "properties": { "confidence": 0.95849978923797607 }, "geometry": { "type": "Point", "coordinates": [ -76.889148973005916, -10.303194111213312 ] } },
{ "type": "Feature", "properties": { "confidence": 0.99892425537109375 }, "geometry": { "type": "Point", "coordinates": [ -77.342792600449499, -9.38028577547799 ] } },
{ "type": "Feature", "properties": { "confidence": 0.99910223484039307 }, "geometry": { "type": "Point", "coordinates": [ -68.437210996584867, -15.928639211459718 ] } },
{ "type": "Feature", "properties": { "confidence": 0.99993431568145752 }, "geometry": { "type": "Point", "coordinates": [ -70.973256039818281, -13.773014328762159 ] } },
{ "type": "Feature", "properties": { "confidence": 0.84698963165283203 }, "geometry": { "type": "Point", "coordinates": [ -75.563474751051373, -11.556060869444144 ] } },
{ "type": "Feature", "properties": { "confidence": 0.82131022 }, "geometry": { "type": "Point", "coordinates": [ -71.908034654516698, -14.689495016942681 ] } },
{ "type": "Feature", "properties": { "confidence": 0.96120619773864746 }, "geometry": { "type": "Point", "coordinates": [ -78.018242660889911, -7.831739741023209 ] } },
{ "type": "Feature", "properties": { "confidence": 0.62471664 }, "geometry": { "type": "Point", "coordinates": [ -76.143242710930451, -11.779996535087244 ] } },
{ "type": "Feature", "properties": { "confidence": 0.84980916976928711 }, "geometry": { "type": "Point", "coordinates": [ -75.858490532526602, -11.592146049577387 ] } },
{ "type": "Feature", "properties": { "confidence": 0.99953114986419678 }, "geometry": { "type": "Point", "coordinates": [ -68.412329173720977, -15.94372649945376 ] } },
{ "type": "Feature", "properties": { "confidence": 0.9997677206993103 }, "geometry": { "type": "Point", "coordinates": [ -70.825900202534115, -13.930426013203423 ] } },
{ "type": "Feature", "properties": { "confidence": 0.91008436679840088 }, "geometry": { "type": "Point", "coordinates": [ -69.222882195218887, -14.670718780553839 ] } },
{ "type": "Feature", "properties": { "confidence": 0.99129366874694824 }, "geometry": { "type": "Point", "coordinates": [ -78.008031616929046, -7.838290082685138 ] } },
{ "type": "Feature", "properties": { "confidence": 0.99995112419128418 }, "geometry": { "type": "Point", "coordinates": [ -77.503328361617292, -9.253634151498202 ] } },
{ "type": "Feature", "properties": { "confidence": 0.99993431568145752 }, "geometry": { "type": "Point", "coordinates": [ -70.797218356737943, -13.917710738762393 ] } },
{ "type": "Feature", "properties": { "confidence": 0.99999773502349854 }, "geometry": { "type": "Point", "coordinates": [ -71.10213151877079, -13.750250605196259 ] } },
{ "type": "Feature", "properties": { "confidence": 0.99701476097106934 }, "geometry": { "type": "Point", "coordinates": [ -75.279941594054705, -11.936217492386668 ] } },
{ "type": "Feature", "properties": { "confidence": 0.99999898672103882 }, "geometry": { "type": "Point", "coordinates": [ -70.794981022495307, -13.915525424645008 ] } },
{ "type": "Feature", "properties": { "confidence": 0.99998503923416138 }, "geometry": { "type": "Point", "coordinates": [ -70.810236863726772, -13.902803633198493 ] } },
{ "type": "Feature", "properties": { "confidence": 0.51960862 }, "geometry": { "type": "Point", "coordinates": [ -72.633369207616454, -14.461470656441284 ] } },
{ "type": "Feature", "properties": { "confidence": 0.99988549947738647 }, "geometry": { "type": "Point", "coordinates": [ -70.835262994987971, -13.958437400412087 ] } },
{ "type": "Feature", "properties": { "confidence": 1.0 }, "geometry": { "type": "Point", "coordinates": [ -67.780280505664166, -16.654860414102433 ] } },
{ "type": "Feature", "properties": { "confidence": 0.98209470510482788 }, "geometry": { "type": "Point", "coordinates": [ -76.292627101255746, -10.692135167390914 ] } },
{ "type": "Feature", "properties": { "confidence": 0.99832147359848022 }, "geometry": { "type": "Point", "coordinates": [ -70.862695036043519, -13.785187207776749 ] } },
{ "type": "Feature", "properties": { "confidence": 0.99999129772186279 }, "geometry": { "type": "Point", "coordinates": [ -71.099893374716544, -13.759001075188122 ] } },
{ "type": "Feature", "properties": { "confidence": 0.99873661994934082 }, "geometry": { "type": "Point", "coordinates": [ -69.256352238431518, -14.672891027109214 ] } },
{ "type": "Feature", "properties": { "confidence": 0.99943369626998901 }, "geometry": { "type": "Point", "coordinates": [ -72.711269978650094, -13.373583725000266 ] } },
{ "type": "Feature", "properties": { "confidence": 0.88666963577270508 }, "geometry": { "type": "Point", "coordinates": [ -77.886509181143708, -7.999494187333522 ] } },
{ "type": "Feature", "properties": { "confidence": 0.8811536431312561 }, "geometry": { "type": "Point", "coordinates": [ -69.583766568055594, -14.557316534975739 ] } },
{ "type": "Feature", "properties": { "confidence": 0.99998259544372559 }, "geometry": { "type": "Point", "coordinates": [ -70.829966800965224, -13.889299095039259 ] } },
{ "type": "Feature", "properties": { "confidence": 0.6173411 }, "geometry": { "type": "Point", "coordinates": [ -74.678632826032768, -13.351230082033112 ] } },
{ "type": "Feature", "properties": { "confidence": 0.99663406610488892 }, "geometry": { "type": "Point", "coordinates": [ -70.808000093779185, -13.898433111969176 ] } },
{ "type": "Feature", "properties": { "confidence": 0.99996274709701538 }, "geometry": { "type": "Point", "coordinates": [ -67.78707145802943, -16.637402388140643 ] } },
{ "type": "Feature", "properties": { "confidence": 0.99914395809173584 }, "geometry": { "type": "Point", "coordinates": [ -69.171662515402147, -14.718502103589937 ] } },
{ "type": "Feature", "properties": { "confidence": 0.99999111890792847 }, "geometry": { "type": "Point", "coordinates": [ -70.810642362193832, -13.924266681114553 ] } },
{ "type": "Feature", "properties": { "confidence": 0.99996054172515869 }, "geometry": { "type": "Point", "coordinates": [ -77.318607151579513, -9.378102378777003 ] } },
{ "type": "Feature", "properties": { "confidence": 0.99803894758224487 }, "geometry": { "type": "Point", "coordinates": [ -77.327401860259499, -9.386835965580959 ] } },
{ "type": "Feature", "properties": { "confidence": 0.59826368 }, "geometry": { "type": "Point", "coordinates": [ -72.371557249590595, -14.773046363294537 ] } },
{ "type": "Feature", "properties": { "confidence": 0.90769076347351074 }, "geometry": { "type": "Point", "coordinates": [ -71.106607806879296, -13.750250605196257 ] } },
{ "type": "Feature", "properties": { "confidence": 0.99985063076019287 }, "geometry": { "type": "Point", "coordinates": [ -71.320142133521557, -14.908462701442611 ] } },
{ "type": "Feature", "properties": { "confidence": 0.92091125249862671 }, "geometry": { "type": "Point", "coordinates": [ -79.430409416159563, -5.905763980791889 ] } },
{ "type": "Feature", "properties": { "confidence": 0.99445265531539917 }, "geometry": { "type": "Point", "coordinates": [ -70.837501324843117, -13.958437400412087 ] } },
{ "type": "Feature", "properties": { "confidence": 0.8363569974899292 }, "geometry": { "type": "Point", "coordinates": [ -70.823662441057465, -13.910754396237447 ] } },
{ "type": "Feature", "properties": { "confidence": 0.99202334880828857 }, "geometry": { "type": "Point", "coordinates": [ -69.256352238431532, -14.675063273664588 ] } },
{ "type": "Feature", "properties": { "confidence": 0.50778753 }, "geometry": { "type": "Point", "coordinates": [ -76.390695792821731, -11.036786947609096 ] } },
{ "type": "Feature", "properties": { "confidence": 0.91085237264633179 }, "geometry": { "type": "Point", "coordinates": [ -71.215342950255177, -13.786512189890036 ] } },
{ "type": "Feature", "properties": { "confidence": 0.99647587537765503 }, "geometry": { "type": "Point", "coordinates": [ -70.834851248440629, -13.939168954077189 ] } },
{ "type": "Feature", "properties": { "confidence": 0.99906736612319946 }, "geometry": { "type": "Point", "coordinates": [ -70.834851248440629, -13.928240277984981 ] } },
{ "type": "Feature", "properties": { "confidence": 0.99992471933364868 }, "geometry": { "type": "Point", "coordinates": [ -70.814711395150937, -13.917311601892772 ] } },
{ "type": "Feature", "properties": { "confidence": 0.97565567493438721 }, "geometry": { "type": "Point", "coordinates": [ -69.173893868258659, -14.720673841713467 ] } },
{ "type": "Feature", "properties": { "confidence": 0.99959003925323486 }, "geometry": { "type": "Point", "coordinates": [ -76.891352366129894, -10.305376239634247 ] } },
{ "type": "Feature", "properties": { "confidence": 0.84780114889144897 }, "geometry": { "type": "Point", "coordinates": [ -78.198426259328514, -7.646837080883734 ] } },
{ "type": "Feature", "properties": { "confidence": 0.99985945224761963 }, "geometry": { "type": "Point", "coordinates": [ -70.828137964010722, -13.930426013203425 ] } },
{ "type": "Feature", "properties": { "confidence": 0.81375777721405029 }, "geometry": { "type": "Point", "coordinates": [ -78.461146560572146, -6.490159932983955 ] } },
{ "type": "Feature", "properties": { "confidence": 0.92216527462005615 }, "geometry": { "type": "Point", "coordinates": [ -71.126280556658514, -13.731016894974422 ] } },
{ "type": "Feature", "properties": { "confidence": 0.86455363035202026 }, "geometry": { "type": "Point", "coordinates": [ -78.152335021821514, -7.360113655960881 ] } },
{ "type": "Feature", "properties": { "confidence": 0.99997186660766602 }, "geometry": { "type": "Point", "coordinates": [ -71.226537746501222, -13.786512189890036 ] } },
{ "type": "Feature", "properties": { "confidence": 0.92474198341369629 }, "geometry": { "type": "Point", "coordinates": [ -68.531590887524928, -15.809523245844375 ] } },
{ "type": "Feature", "properties": { "confidence": 0.9979856014251709 }, "geometry": { "type": "Point", "coordinates": [ -71.11332223904202, -13.761188692686087 ] } },
{ "type": "Feature", "properties": { "confidence": 0.9954342246055603 }, "geometry": { "type": "Point", "coordinates": [ -70.825900202534115, -13.919497337111217 ] } },
{ "type": "Feature", "properties": { "confidence": 0.99991190433502197 }, "geometry": { "type": "Point", "coordinates": [ -71.159379728997621, -13.730559686439372 ] } },
{ "type": "Feature", "properties": { "confidence": 0.82849711179733276 }, "geometry": { "type": "Point", "coordinates": [ -78.170475898863117, -7.262580807650866 ] } },
{ "type": "Feature", "properties": { "confidence": 1.0 }, "geometry": { "type": "Point", "coordinates": [ -77.615755037781838, -9.103308904387653 ] } },
{ "type": "Feature", "properties": { "confidence": 0.98456823825836182 }, "geometry": { "type": "Point", "coordinates": [ -78.451021902108778, -7.164686881760093 ] } },
{ "type": "Feature", "properties": { "confidence": 0.99892705678939819 }, "geometry": { "type": "Point", "coordinates": [ -71.051119055277837, -13.748516976787421 ] } },
{ "type": "Feature", "properties": { "confidence": 0.80985260009765625 }, "geometry": { "type": "Point", "coordinates": [ -78.068912076711811, -7.506809989429705 ] } },
{ "type": "Feature", "properties": { "confidence": 0.97975492477416992 }, "geometry": { "type": "Point", "coordinates": [ -75.506523432215062, -11.679808858645847 ] } },
{ "type": "Feature", "properties": { "confidence": 0.93242388963699341 }, "geometry": { "type": "Point", "coordinates": [ -77.997084001171146, -7.836106635464493 ] } },
{ "type": "Feature", "properties": { "confidence": 0.99536794424057007 }, "geometry": { "type": "Point", "coordinates": [ -71.10436966282505, -13.75462584019219 ] } },
{ "type": "Feature", "properties": { "confidence": 0.99999946355819702 }, "geometry": { "type": "Point", "coordinates": [ -70.808405027951196, -13.913340110527619 ] } },
{ "type": "Feature", "properties": { "confidence": 0.88810050487518311 }, "geometry": { "type": "Point", "coordinates": [ -69.568133392681375, -14.559491753041637 ] } },
{ "type": "Feature", "properties": { "confidence": 0.99101001024246216 }, "geometry": { "type": "Point", "coordinates": [ -66.803101350113394, -17.102073010822259 ] } },
{ "type": "Feature", "properties": { "confidence": 0.99852114915847778 }, "geometry": { "type": "Point", "coordinates": [ -76.719331405717824, -10.483989242208979 ] } },
{ "type": "Feature", "properties": { "confidence": 0.64406133 }, "geometry": { "type": "Point", "coordinates": [ -75.829266069723516, -11.370903371259349 ] } },
{ "type": "Feature", "properties": { "confidence": 0.83968287706375122 }, "geometry": { "type": "Point", "coordinates": [ -69.258583574645698, -14.677235520219959 ] } },
{ "type": "Feature", "properties": { "confidence": 0.99999052286148071 }, "geometry": { "type": "Point", "coordinates": [ -70.819186918104208, -13.921683072329655 ] } },
{ "type": "Feature", "properties": { "confidence": 0.99982506036758423 }, "geometry": { "type": "Point", "coordinates": [ -76.895449108827364, -10.281064922136263 ] } },
{ "type": "Feature", "properties": { "confidence": 0.97384417057037354 }, "geometry": { "type": "Point", "coordinates": [ -78.119663047294395, -7.710935591657979 ] } },
{ "type": "Feature", "properties": { "confidence": 0.9551316499710083 }, "geometry": { "type": "Point", "coordinates": [ -69.225113531433081, -14.66854653399847 ] } },
{ "type": "Feature", "properties": { "confidence": 0.99505996704101562 }, "geometry": { "type": "Point", "coordinates": [ -77.494535737817813, -9.260185776770282 ] } },
{ "type": "Feature", "properties": { "confidence": 0.98504364490509033 }, "geometry": { "type": "Point", "coordinates": [ -78.387986049700601, -7.216152208216752 ] } },
{ "type": "Feature", "properties": { "confidence": 0.99999427795410156 }, "geometry": { "type": "Point", "coordinates": [ -71.23101566499966, -13.793077459311762 ] } },
{ "type": "Feature", "properties": { "confidence": 0.98741835355758667 }, "geometry": { "type": "Point", "coordinates": [ -77.492337581867929, -9.251450276407509 ] } },
{ "type": "Feature", "properties": { "confidence": 0.98968255519866943 }, "geometry": { "type": "Point", "coordinates": [ -70.935664616507154, -13.797491184695712 ] } },
{ "type": "Feature", "properties": { "confidence": 0.58264941 }, "geometry": { "type": "Point", "coordinates": [ -72.722797422205346, -14.637999295318684 ] } },
{ "type": "Feature", "properties": { "confidence": 0.98511976003646851 }, "geometry": { "type": "Point", "coordinates": [ -75.506523432215062, -11.675460396148052 ] } },
{ "type": "Feature", "properties": { "confidence": 0.83477109670639038 }, "geometry": { "type": "Point", "coordinates": [ -78.231330523984823, -7.260722453809374 ] } },
{ "type": "Feature", "properties": { "confidence": 0.98855048418045044 }, "geometry": { "type": "Point", "coordinates": [ -71.106607806879296, -13.74806298769829 ] } },
{ "type": "Feature", "properties": { "confidence": 0.87877047061920166 }, "geometry": { "type": "Point", "coordinates": [ -65.964394813706107, -17.520822639647328 ] } },
{ "type": "Feature", "properties": { "confidence": 0.99999946355819702 }, "geometry": { "type": "Point", "coordinates": [ -71.059614609917588, -13.738024084750489 ] } },
{ "type": "Feature", "properties": { "confidence": 0.99564379453659058 }, "geometry": { "type": "Point", "coordinates": [ -76.065838800461805, -11.109617662570386 ] } },
{ "type": "Feature", "properties": { "confidence": 0.63165814 }, "geometry": { "type": "Point", "coordinates": [ -76.190917526069299, -11.597518894167941 ] } },
{ "type": "Feature", "properties": { "confidence": 0.80435347557067871 }, "geometry": { "type": "Point", "coordinates": [ -79.641159873247645, -5.728413783265857 ] } },
{ "type": "Feature", "properties": { "confidence": 0.99999237060546875 }, "geometry": { "type": "Point", "coordinates": [ -77.606965509696877, -9.107677070530128 ] } },
{ "type": "Feature", "properties": { "confidence": 0.71534783 }, "geometry": { "type": "Point", "coordinates": [ -72.696050770829103, -14.42522902147962 ] } },
{ "type": "Feature", "properties": { "confidence": 0.99999934434890747 }, "geometry": { "type": "Point", "coordinates": [ -68.153116853729671, -16.259577362129821 ] } },
{ "type": "Feature", "properties": { "confidence": 0.9997788667678833 }, "geometry": { "type": "Point", "coordinates": [ -70.823662441057465, -13.923868807548097 ] } },
{ "type": "Feature", "properties": { "confidence": 0.99287617206573486 }, "geometry": { "type": "Point", "coordinates": [ -66.291888510722444, -17.512288401224179 ] } },
{ "type": "Feature", "properties": { "confidence": 0.9955894947052002 }, "geometry": { "type": "Point", "coordinates": [ -78.007295045132011, -7.833923188243852 ] } },
{ "type": "Feature", "properties": { "confidence": 0.54331762 }, "geometry": { "type": "Point", "coordinates": [ -74.957927979398448, -13.127898626978576 ] } },
{ "type": "Feature", "properties": { "confidence": 0.99387097358703613 }, "geometry": { "type": "Point", "coordinates": [ -68.068635124195993, -16.58893037417926 ] } },
{ "type": "Feature", "properties": { "confidence": 0.99994981288909912 }, "geometry": { "type": "Point", "coordinates": [ -70.816949156627572, -13.923868807548097 ] } },
{ "type": "Feature", "properties": { "confidence": 0.83399802 }, "geometry": { "type": "Point", "coordinates": [ -76.509316933697932, -11.038388959725832 ] } },
{ "type": "Feature", "properties": { "confidence": 0.58486611 }, "geometry": { "type": "Point", "coordinates": [ -75.198820580638539, -12.533171814334777 ] } },
{ "type": "Feature", "properties": { "confidence": 0.99588674306869507 }, "geometry": { "type": "Point", "coordinates": [ -68.405735285595583, -15.965332807707286 ] } },
{ "type": "Feature", "properties": { "confidence": 0.99999833106994629 }, "geometry": { "type": "Point", "coordinates": [ -77.481346802118551, -9.249266401316817 ] } },
{ "type": "Feature", "properties": { "confidence": 0.99969536066055298 }, "geometry": { "type": "Point", "coordinates": [ -67.830698813714577, -16.507714543179524 ] } },
{ "type": "Feature", "properties": { "confidence": 0.90079993009567261 }, "geometry": { "type": "Point", "coordinates": [ -78.216260472844951, -7.590430439045055 ] } },
{ "type": "Feature", "properties": { "confidence": 0.9998202919960022 }, "geometry": { "type": "Point", "coordinates": [ -68.439459179021455, -15.928639211459716 ] } },
{ "type": "Feature", "properties": { "confidence": 0.99999910593032837 }, "geometry": { "type": "Point", "coordinates": [ -77.356694708209844, -9.493128579978777 ] } },
{ "type": "Feature", "properties": { "confidence": 0.9253275990486145 }, "geometry": { "type": "Point", "coordinates": [ -78.350856026251336, -7.207427313183031 ] } },
{ "type": "Feature", "properties": { "confidence": 0.99934923648834229 }, "geometry": { "type": "Point", "coordinates": [ -70.814711395150937, -13.912940131455889 ] } },
{ "type": "Feature", "properties": { "confidence": 0.72122306 }, "geometry": { "type": "Point", "coordinates": [ -72.965913036022826, -14.601213338082673 ] } },
{ "type": "Feature", "properties": { "confidence": 0.9939497709274292 }, "geometry": { "type": "Point", "coordinates": [ -77.48354495806845, -9.260185776770282 ] } },
{ "type": "Feature", "properties": { "confidence": 0.99999916553497314 }, "geometry": { "type": "Point", "coordinates": [ -77.48354495806845, -9.251450276407512 ] } },
{ "type": "Feature", "properties": { "confidence": 0.99825823307037354 }, "geometry": { "type": "Point", "coordinates": [ -70.832613486963993, -13.936983218858748 ] } },
{ "type": "Feature", "properties": { "confidence": 0.85688257217407227 }, "geometry": { "type": "Point", "coordinates": [ -66.423280664611028, -17.680745843401553 ] } },
{ "type": "Feature", "properties": { "confidence": 0.99911916255950928 }, "geometry": { "type": "Point", "coordinates": [ -76.891352366129894, -10.283554955424892 ] } },
{ "type": "Feature", "properties": { "confidence": 0.99996417760848999 }, "geometry": { "type": "Point", "coordinates": [ -70.825492410535503, -13.89367045475892 ] } },
{ "type": "Feature", "properties": { "confidence": 0.97568970918655396 }, "geometry": { "type": "Point", "coordinates": [ -75.508729517569947, -11.675460396148052 ] } },
{ "type": "Feature", "properties": { "confidence": 0.82175546884536743 }, "geometry": { "type": "Point", "coordinates": [ -69.207314982309597, -14.68162570962552 ] } },
{ "type": "Feature", "properties": { "confidence": 0.81173527240753174 }, "geometry": { "type": "Point", "coordinates": [ -78.213738055191229, -7.609736080802936 ] } },
{ "type": "Feature", "properties": { "confidence": 0.99860358238220215 }, "geometry": { "type": "Point", "coordinates": [ -68.53608265021461, -15.826918320073302 ] } },
{ "type": "Feature", "properties": { "confidence": 0.99998128414154053 }, "geometry": { "type": "Point", "coordinates": [ -70.825900202534115, -13.932611748421866 ] } },
{ "type": "Feature", "properties": { "confidence": 0.99646186828613281 }, "geometry": { "type": "Point", "coordinates": [ -75.504317346860176, -11.703725402383705 ] } },
{ "type": "Feature", "properties": { "confidence": 0.9999687671661377 }, "geometry": { "type": "Point", "coordinates": [ -70.827729605750363, -13.89367045475892 ] } },
{ "type": "Feature", "properties": { "confidence": 0.99990540742874146 }, "geometry": { "type": "Point", "coordinates": [ -70.914146254751188, -13.82153797836321 ] } },
{ "type": "Feature", "properties": { "confidence": 0.99961733818054199 }, "geometry": { "type": "Point", "coordinates": [ -68.148606341847042, -16.255220803202757 ] } },
{ "type": "Feature", "properties": { "confidence": 0.75849468 }, "geometry": { "type": "Point", "coordinates": [ -75.523681669444187, -12.595672126143834 ] } },
{ "type": "Feature", "properties": { "confidence": 0.55808556 }, "geometry": { "type": "Point", "coordinates": [ -73.142539310727059, -14.520265454882036 ] } },
{ "type": "Feature", "properties": { "confidence": 0.57183707 }, "geometry": { "type": "Point", "coordinates": [ -72.518312723680467, -14.200098762540122 ] } },
{ "type": "Feature", "properties": { "confidence": 0.59184313 }, "geometry": { "type": "Point", "coordinates": [ -75.050907920335277, -13.023725579030561 ] } },
{ "type": "Feature", "properties": { "confidence": 0.99243772029876709 }, "geometry": { "type": "Point", "coordinates": [ -75.27332168947683, -11.942735516433741 ] } },
{ "type": "Feature", "properties": { "confidence": 0.99946486949920654 }, "geometry": { "type": "Point", "coordinates": [ -71.108845950933528, -13.759001075188122 ] } },
{ "type": "Feature", "properties": { "confidence": 0.89456027746200562 }, "geometry": { "type": "Point", "coordinates": [ -78.131534115895136, -6.911075267338898 ] } },
{ "type": "Feature", "properties": { "confidence": 0.99999630451202393 }, "geometry": { "type": "Point", "coordinates": [ -70.966981291837314, -13.793118396016331 ] } },
{ "type": "Feature", "properties": { "confidence": 0.99998170137405396 }, "geometry": { "type": "Point", "coordinates": [ -70.97549336020532, -13.773014328762159 ] } },
{ "type": "Feature", "properties": { "confidence": 0.99127811193466187 }, "geometry": { "type": "Point", "coordinates": [ -69.583766568055594, -14.572543061437026 ] } },
{ "type": "Feature", "properties": { "confidence": 0.76149875 }, "geometry": { "type": "Point", "coordinates": [ -75.002211705977274, -12.832747338360882 ] } },
{ "type": "Feature", "properties": { "confidence": 0.8054577112197876 }, "geometry": { "type": "Point", "coordinates": [ -78.052177498396844, -7.749872500672329 ] } },
{ "type": "Feature", "properties": { "confidence": 0.99823468923568726 }, "geometry": { "type": "Point", "coordinates": [ -70.8393267713939, -13.950097630169401 ] } },
{ "type": "Feature", "properties": { "confidence": 0.99987435340881348 }, "geometry": { "type": "Point", "coordinates": [ -70.823662441057465, -13.930426013203423 ] } },
{ "type": "Feature", "properties": { "confidence": 0.7656424 }, "geometry": { "type": "Point", "coordinates": [ -72.585470564162605, -14.36341030533325 ] } },
{ "type": "Feature", "properties": { "confidence": 0.99997276067733765 }, "geometry": { "type": "Point", "coordinates": [ -70.828137964010722, -13.923868807548097 ] } },
{ "type": "Feature", "properties": { "confidence": 0.80074232816696167 }, "geometry": { "type": "Point", "coordinates": [ -78.087898234778649, -7.567925080991463 ] } },
{ "type": "Feature", "properties": { "confidence": 0.99999159574508667 }, "geometry": { "type": "Point", "coordinates": [ -71.322395145978504, -14.906271896035639 ] } },
{ "type": "Feature", "properties": { "confidence": 0.99143105745315552 }, "geometry": { "type": "Point", "coordinates": [ -78.538900409838675, -6.995719965965701 ] } },
{ "type": "Feature", "properties": { "confidence": 0.99934524297714233 }, "geometry": { "type": "Point", "coordinates": [ -70.832613486963993, -13.941354689295631 ] } },
{ "type": "Feature", "properties": { "confidence": 0.99998819828033447 }, "geometry": { "type": "Point", "coordinates": [ -70.819186918104208, -13.930426013203425 ] } },
{ "type": "Feature", "properties": { "confidence": 0.86770790815353394 }, "geometry": { "type": "Point", "coordinates": [ -75.493286920085694, -11.681983089894745 ] } },
{ "type": "Feature", "properties": { "confidence": 0.82829457521438599 }, "geometry": { "type": "Point", "coordinates": [ -78.593973436671448, -6.870339210954608 ] } },
{ "type": "Feature", "properties": { "confidence": 1.0 }, "geometry": { "type": "Point", "coordinates": [ -67.782544156452587, -16.64831365436676 ] } },
{ "type": "Feature", "properties": { "confidence": 0.99874305725097656 }, "geometry": { "type": "Point", "coordinates": [ -70.837089009917264, -13.939168954077189 ] } },
{ "type": "Feature", "properties": { "confidence": 0.83006531000137329 }, "geometry": { "type": "Point", "coordinates": [ -76.188107987611787, -10.317080341139972 ] } },
{ "type": "Feature", "properties": { "confidence": 0.85243427753448486 }, "geometry": { "type": "Point", "coordinates": [ -78.067864374502875, -7.977289761254697 ] } },
{ "type": "Feature", "properties": { "confidence": 0.99423003196716309 }, "geometry": { "type": "Point", "coordinates": [ -77.492337581867929, -9.253634151498204 ] } },
{ "type": "Feature", "properties": { "confidence": 0.98700231313705444 }, "geometry": { "type": "Point", "coordinates": [ -77.574004779378228, -9.085836239817747 ] } },
{ "type": "Feature", "properties": { "confidence": 0.62422103 }, "geometry": { "type": "Point", "coordinates": [ -74.773932161693693, -13.353503202817107 ] } },
{ "type": "Feature", "properties": { "confidence": 0.99824672937393188 }, "geometry": { "type": "Point", "coordinates": [ -70.821424679580844, -13.934797483640308 ] } },
{ "type": "Feature", "properties": { "confidence": 0.99999713897705078 }, "geometry": { "type": "Point", "coordinates": [ -73.09043504902948, -13.231447126100706 ] } },
{ "type": "Feature", "properties": { "confidence": 0.82561618089675903 }, "geometry": { "type": "Point", "coordinates": [ -71.126280556658514, -13.733204447842551 ] } },
{ "type": "Feature", "properties": { "confidence": 0.84224516153335571 }, "geometry": { "type": "Point", "coordinates": [ -79.417219057602367, -5.988322045270515 ] } },
{ "type": "Feature", "properties": { "confidence": 0.81056457757949829 }, "geometry": { "type": "Point", "coordinates": [ -70.841564532870521, -13.936983218858748 ] } },
{ "type": "Feature", "properties": { "confidence": 0.85570806264877319 }, "geometry": { "type": "Point", "coordinates": [ -68.91064097585604, -15.135185871805328 ] } },
{ "type": "Feature", "properties": { "confidence": 0.85324138402938843 }, "geometry": { "type": "Point", "coordinates": [ -79.465878067849431, -5.582500657035746 ] } },
{ "type": "Feature", "properties": { "confidence": 0.89070403575897217 }, "geometry": { "type": "Point", "coordinates": [ -75.27332168947683, -11.940562841751385 ] } },
{ "type": "Feature", "properties": { "confidence": 0.99995440244674683 }, "geometry": { "type": "Point", "coordinates": [ -67.789335108817852, -16.64176689463109 ] } },
{ "type": "Feature", "properties": { "confidence": 0.97649192810058594 }, "geometry": { "type": "Point", "coordinates": [ -71.11332223904202, -13.763376310184054 ] } },
{ "type": "Feature", "properties": { "confidence": 0.934772789478302 }, "geometry": { "type": "Point", "coordinates": [ -75.23370343483947, -11.988360873569446 ] } },
{ "type": "Feature", "properties": { "confidence": 0.99965041875839233 }, "geometry": { "type": "Point", "coordinates": [ -77.340593923279485, -9.38028577547799 ] } },
{ "type": "Feature", "properties": { "confidence": 0.99995005130767822 }, "geometry": { "type": "Point", "coordinates": [ -73.088204085033098, -13.233632536230981 ] } },
{ "type": "Feature", "properties": { "confidence": 0.99627971649169922 }, "geometry": { "type": "Point", "coordinates": [ -69.410051804641114, -14.620596149338812 ] } },
{ "type": "Feature", "properties": { "confidence": 0.99660909175872803 }, "geometry": { "type": "Point", "coordinates": [ -71.10213151877079, -13.74806298769829 ] } },
{ "type": "Feature", "properties": { "confidence": 0.87025654315948486 }, "geometry": { "type": "Point", "coordinates": [ -78.317121570129217, -7.037896703637073 ] } },
{ "type": "Feature", "properties": { "confidence": 0.94400531053543091 }, "geometry": { "type": "Point", "coordinates": [ -68.434962814148278, -15.930814688449569 ] } },
{ "type": "Feature", "properties": { "confidence": 0.99999302625656128 }, "geometry": { "type": "Point", "coordinates": [ -76.902060156801383, -10.27233525288475 ] } },
{ "type": "Feature", "properties": { "confidence": 0.89124417304992676 }, "geometry": { "type": "Point", "coordinates": [ -70.832613486963993, -13.926054542766542 ] } },
{ "type": "Feature", "properties": { "confidence": 0.97520709037780762 }, "geometry": { "type": "Point", "coordinates": [ -67.356973601062023, -16.948883868939713 ] } },
{ "type": "Feature", "properties": { "confidence": 0.5044561 }, "geometry": { "type": "Point", "coordinates": [ -75.130444836306964, -12.74373342324132 ] } },
{ "type": "Feature", "properties": { "confidence": 0.89746659994125366 }, "geometry": { "type": "Point", "coordinates": [ -77.101773250820116, -8.92832544108548 ] } },
{ "type": "Feature", "properties": { "confidence": 0.50903583 }, "geometry": { "type": "Point", "coordinates": [ -74.745115228997051, -13.357816195951054 ] } },
{ "type": "Feature", "properties": { "confidence": 0.52708089 }, "geometry": { "type": "Point", "coordinates": [ -74.955714051678726, -13.125728025366506 ] } },
{ "type": "Feature", "properties": { "confidence": 0.99999016523361206 }, "geometry": { "type": "Point", "coordinates": [ -70.821424679580844, -13.928240277984981 ] } },
{ "type": "Feature", "properties": { "confidence": 0.9473767876625061 }, "geometry": { "type": "Point", "coordinates": [ -75.694960172972429, -11.30820922565278 ] } },
{ "type": "Feature", "properties": { "confidence": 0.98101973533630371 }, "geometry": { "type": "Point", "coordinates": [ -73.09043504902948, -13.233632536230981 ] } },
{ "type": "Feature", "properties": { "confidence": 0.86713123321533203 }, "geometry": { "type": "Point", "coordinates": [ -79.437075259123461, -5.838442233538946 ] } },
{ "type": "Feature", "properties": { "confidence": 0.87218546867370605 }, "geometry": { "type": "Point", "coordinates": [ -71.037692655604985, -13.75507861199573 ] } },
{ "type": "Feature", "properties": { "confidence": 0.99999994039535522 }, "geometry": { "type": "Point", "coordinates": [ -67.778016854875744, -16.654860414102433 ] } },
{ "type": "Feature", "properties": { "confidence": 0.84055072069168091 }, "geometry": { "type": "Point", "coordinates": [ -77.501130205667437, -9.25800190167959 ] } },
{ "type": "Feature", "properties": { "confidence": 0.9999997615814209 }, "geometry": { "type": "Point", "coordinates": [ -76.897652791485356, -10.281064922136267 ] } },
{ "type": "Feature", "properties": { "confidence": 0.98837131261825562 }, "geometry": { "type": "Point", "coordinates": [ -76.024940975799353, -11.971447782405324 ] } },
{ "type": "Feature", "properties": { "confidence": 0.99996417760848999 }, "geometry": { "type": "Point", "coordinates": [ -76.902060156801383, -10.276700087510505 ] } },
{ "type": "Feature", "properties": { "confidence": 0.99998664855957031 }, "geometry": { "type": "Point", "coordinates": [ -71.090479366918728, -13.69820360195251 ] } },
{ "type": "Feature", "properties": { "confidence": 0.85921680927276611 }, "geometry": { "type": "Point", "coordinates": [ -78.492223243719238, -7.234187635299499 ] } },
{ "type": "Feature", "properties": { "confidence": 1.0 }, "geometry": { "type": "Point", "coordinates": [ -71.079291495125005, -13.724454236370043 ] } },
{ "type": "Feature", "properties": { "confidence": 0.96947038173675537 }, "geometry": { "type": "Point", "coordinates": [ -67.123008101367574, -16.903734207125019 ] } },
{ "type": "Feature", "properties": { "confidence": 0.60074311 }, "geometry": { "type": "Point", "coordinates": [ -74.96235694282683, -13.125729082446012 ] } },
{ "type": "Feature", "properties": { "confidence": 0.89359980821609497 }, "geometry": { "type": "Point", "coordinates": [ -71.08824179255997, -13.713516472029402 ] } },
{ "type": "Feature", "properties": { "confidence": 0.96892702579498291 }, "geometry": { "type": "Point", "coordinates": [ -66.691974667632692, -17.161671198590241 ] } },
{ "type": "Feature", "properties": { "confidence": 0.99904674291610718 }, "geometry": { "type": "Point", "coordinates": [ -71.10213151877079, -13.756813457690154 ] } },
{ "type": "Feature", "properties": { "confidence": 0.57252145 }, "geometry": { "type": "Point", "coordinates": [ -74.953499346630338, -13.127897864989212 ] } },
{ "type": "Feature", "properties": { "confidence": 0.99523192644119263 }, "geometry": { "type": "Point", "coordinates": [ -78.02992523962385, -7.78662465608303 ] } },
{ "type": "Feature", "properties": { "confidence": 1.0 }, "geometry": { "type": "Point", "coordinates": [ -75.879131573155519, -11.147313708339242 ] } },
{ "type": "Feature", "properties": { "confidence": 0.94217324256896973 }, "geometry": { "type": "Point", "coordinates": [ -68.513747098433399, -15.805053001973073 ] } },
{ "type": "Feature", "properties": { "confidence": 0.98285478353500366 }, "geometry": { "type": "Point", "coordinates": [ -67.762171299356794, -16.65267816085721 ] } },
{ "type": "Feature", "properties": { "confidence": 0.94423949718475342 }, "geometry": { "type": "Point", "coordinates": [ -75.484462578666097, -11.703725402383705 ] } },
{ "type": "Feature", "properties": { "confidence": 0.61249655 }, "geometry": { "type": "Point", "coordinates": [ -72.507504699944647, -14.770218552829537 ] } },
{ "type": "Feature", "properties": { "confidence": 0.97005921602249146 }, "geometry": { "type": "Point", "coordinates": [ -78.080636040476264, -7.98421039479165 ] } },
{ "type": "Feature", "properties": { "confidence": 0.99936342239379883 }, "geometry": { "type": "Point", "coordinates": [ -70.396970682021234, -13.868112691325726 ] } },
{ "type": "Feature", "properties": { "confidence": 0.99920076131820679 }, "geometry": { "type": "Point", "coordinates": [ -69.176125221115157, -14.716330365466407 ] } },
{ "type": "Feature", "properties": { "confidence": 0.87131249904632568 }, "geometry": { "type": "Point", "coordinates": [ -79.438187891137488, -5.456563897510453 ] } },
{ "type": "Feature", "properties": { "confidence": 0.99721020460128784 }, "geometry": { "type": "Point", "coordinates": [ -70.886883149437665, -13.780413806799876 ] } },
{ "type": "Feature", "properties": { "confidence": 0.95804595947265625 }, "geometry": { "type": "Point", "coordinates": [ -66.784864023242889, -17.095496175132709 ] } },
{ "type": "Feature", "properties": { "confidence": 1.0 }, "geometry": { "type": "Point", "coordinates": [ -68.150861597788349, -16.263933921056889 ] } },
{ "type": "Feature", "properties": { "confidence": 0.99966651201248169 }, "geometry": { "type": "Point", "coordinates": [ -70.834851248440629, -13.932611748421866 ] } },
{ "type": "Feature", "properties": { "confidence": 0.99959582090377808 }, "geometry": { "type": "Point", "coordinates": [ -70.830375725487357, -13.926054542766542 ] } },
{ "type": "Feature", "properties": { "confidence": 0.98639613389968872 }, "geometry": { "type": "Point", "coordinates": [ -71.324648158435437, -14.906271896035635 ] } },
{ "type": "Feature", "properties": { "confidence": 0.97502279281616211 }, "geometry": { "type": "Point", "coordinates": [ -78.418557800256721, -7.133864129822819 ] } },
{ "type": "Feature", "properties": { "confidence": 0.82123374938964844 }, "geometry": { "type": "Point", "coordinates": [ -77.93505097032957, -7.769159169372159 ] } },
{ "type": "Feature", "properties": { "confidence": 0.83072471618652344 }, "geometry": { "type": "Point", "coordinates": [ -75.473521509029084, -11.719028796748638 ] } }
]
}
