{
"type": "FeatureCollection",
"name": "andes_supplemental",
"crs": { "type": "name", "properties": { "name": "urn:ogc:def:crs:OGC:1.3:CRS84" } },
"features": [
{ "type": "Feature", "properties": { "id": null, "Zona": null }, "geometry": { "type": "MultiPolygon", "coordinates": [ [ [ [ -70.4584, -13.1655 ], [ -70.1443, -13.1655 ], [ -70.1443, -13.557 ], [ -70.4584, -13.557 ], [ -70.4584, -13.1655 ] ] ] ] } },
{ "type": "Feature", "properties": { "id": 1, "Zona": "Saramiriza" }, "geometry": { "type": "MultiPolygon", "coordinates": [ [ [ [ -77.5238, -4.4047 ], [ -77.2199, -4.4047 ], [ -77.2199, -4.7723 ], [ -77.5238, -4.7723 ], [ -77.5238, -4.4047 ] ] ] ] } },
{ "type": "Feature", "properties": { "id": 3, "Zona": "Yuyapichis" }, "geometry": { "type": "MultiPolygon", "coordinates": [ [ [ [ -75.0363, -9.2067 ], [ -74.7727, -9.2067 ], [ -74.7727, -9.6592 ], [ -75.0363, -9.6592 ], [ -75.0363, -9.2067 ] ] ] ] } },
{ "type": "Feature", "properties": { "id": 4, "Zona": "Quincemil" }, "geometry": { "type": "MultiPolygon", "coordinates": [ [ [ [ -70.9496, -13.0782 ], [ -70.4832, -13.0782 ], [ -70.4832, -13.3597 ], [ -70.9496, -13.3597 ], [ -70.9496, -13.0782 ] ] ] ] } },
{ "type": "Feature", "properties": { "id": 5, "Zona": "Massiapo" }, "geometry": { "type": "MultiPolygon", "coordinates": [ [ [ [ -69.6322, -13.8665 ], [ -68.9877, -13.8665 ], [ -68.9877, -14.4065 ], [ -69.6322, -14.4065 ], [ -69.6322, -13.8665 ] ] ] ] } }
]
}
