{
"type": "FeatureCollection",
"name": "known_negative_regions",
"crs": { "type": "name", "properties": { "name": "urn:ogc:def:crs:OGC:1.3:CRS84" } },
"features": [
{ "type": "Feature", "properties": { }, "geometry": { "type": "Polygon", "coordinates": [ [ [ -60.405351439651184, -2.379450475933259 ], [ -59.278513344745292, -2.387109410544161 ], [ -59.290011692652506, -3.160418528130848 ], [ -60.416849787558391, -3.164245474385277 ], [ -60.405351439651184, -2.379450475933259 ] ] ] } },
{ "type": "Feature", "properties": { }, "geometry": { "type": "Polygon", "coordinates": [ [ [ -46.939755225521651, -3.209490101496848 ], [ -44.226260433338119, -3.227878433598943 ], [ -44.244677818805414, -4.734415969041416 ], [ -46.952033482499871, -4.728297760285005 ], [ -46.939755225521651, -3.209490101496848 ] ] ] } },
{ "type": "Feature", "properties": { }, "geometry": { "type": "Polygon", "coordinates": [ [ [ -64.943220997884893, -5.419147954461168 ], [ -64.060043206023948, -5.425612849200592 ], [ -64.073031114727797, -7.574070397707482 ], [ -64.936727043532997, -7.580507646108434 ], [ -64.943220997884893, -5.419147954461168 ] ] ] } },
{ "type": "Feature", "properties": { }, "geometry": { "type": "Polygon", "coordinates": [ [ [ -72.996117355997285, -7.553101312298513 ], [ -72.604941572916246, -7.554751444180112 ], [ -72.608270728516928, -7.774162292779356 ], [ -73.002775667198648, -7.770863722682792 ], [ -72.996117355997285, -7.553101312298513 ] ] ] } },
{ "type": "Feature", "properties": { }, "geometry": { "type": "Polygon", "coordinates": [ [ [ -65.65014650148359, -16.531409024585315 ], [ -64.927336572591074, -16.531409024585315 ], [ -64.945406820813375, -16.95363115475508 ], [ -65.655567575950272, -16.9501741361013 ], [ -65.65014650148359, -16.531409024585315 ] ] ] } },
{ "type": "Feature", "properties": { }, "geometry": { "type": "Polygon", "coordinates": [ [ [ -61.284861586546761, 4.172134673236931 ], [ -60.108662760158268, 4.172134673236931 ], [ -60.185220080219061, 2.581168884155297 ], [ -61.298781099285101, 2.581168884155297 ], [ -61.284861586546761, 4.172134673236931 ] ] ] } },
{ "type": "Feature", "properties": { }, "geometry": { "type": "Polygon", "coordinates": [ [ [ -51.834239615172827, -2.60560660817645 ], [ -51.824373323564615, -3.023431820684788 ], [ -51.303433126650603, -3.025402330535066 ], [ -51.301459868328962, -2.611520248941728 ], [ -51.834239615172827, -2.60560660817645 ] ] ] } }
]
}
